address,city,county,lat,lng,name,storeType
桃園市龜山區中興路一段21號,桃園市,龜山區,121.33764980000001,24.9939958,龜山中興直營門市,直營店
桃園市龜山區復興一路128號,桃園市,龜山區,121.36730310000007,25.0586832,林口長庚直營門市,直營店
桃園市龜山區文化二路48號,桃園市,龜山區,121.36661879999997,25.0571639,龜山文化二加盟門市,加盟店
桃園市龜山區文化二路133號,桃園市,龜山區,121.370541,25.053885,龜山文化加盟門市,加盟店
桃園市龜山區新樂街29號,桃園市,龜山區,121.33561370000007,24.9933375,桃園龜山加盟門市,加盟店
桃園市龜山區迴龍村萬壽路一段240號,桃園市,龜山區,121.40468199999998,25.0180579,龜山迴龍加盟門市,加盟店
桃園市平鎮區和平路213號,桃園市,平鎮區,121.21959079999999,24.9457375,平鎮和平加盟門市,加盟店
桃園市平鎮區中豐路南勢二段104號1-3F,桃園市,平鎮區,121.21066900000005,24.9168309,平鎮南勢直營門市,直營店
桃園市平鎮區延平路三段24號,桃園市,平鎮區,121.20538809999994,24.941918,平鎮宋屋加盟門市,加盟店
桃園市平鎮區復旦路2號,桃園市,平鎮區,121.21027509999999,24.9473574,平鎮復旦加盟門市,加盟店
桃園市平鎮區中豐路山頂段199號,桃園市,平鎮區,121.21094459999995,24.899659,平鎮中豐加盟門市,加盟店
桃園市楊梅區新成路104號,桃園市,楊梅區,121.14681259999998,24.910759,桃園楊梅加盟門市,加盟店
桃園市楊梅區大成路157號,桃園市,楊梅區,121.14576290000002,24.9117649,楊梅大成直營門市,直營店
桃園市楊梅區永美路357號,桃園市,楊梅區,121.18146960000001,24.9168475,楊梅永美加盟門市,加盟店
桃園市楊梅區中興路5號,桃園市,楊梅區,121.18403590000003,24.9190242,埔心站前加盟門市,加盟店
桃園市楊梅區中山北路二段23巷6號,桃園市,楊梅區,121.16741339999999,24.9077791,楊梅愛買直營門市,直營店
桃園市楊梅區中山路98號,桃園市,楊梅區,121.14567920000002,24.9070096,楊梅大成加盟門市,加盟店
桃園市桃園區中山路445號,桃園市,桃園區,121.29965500000003,24.991614,桃園中山直營門市,直營店
桃園市桃園區中華路20號,桃園市,桃園區,121.31117799999993,24.9911599,桃園中華直營門市,直營店
桃園市桃園區三民路三段190號,桃園市,桃園區,121.30544800000007,24.992705,桃園三民直營門市,直營店
桃園市桃園區南平路402號,桃園市,桃園區,121.29657610000004,25.0175755,桃園南平直營門市,直營店
桃園市桃園區中正路515號,桃園市,桃園區,121.30575309999995,25.0027864,桃園中正直營門市,直營店
桃園市桃園區中正路618號,桃園市,桃園區,121.30472199999997,25.0049627,桃園中正二加盟門市,加盟店
桃園市桃園區桃鶯路122之2號,桃園市,桃園區,121.31815099999994,24.9845681,桃園桃鶯加盟門市,加盟店
桃園市桃園區成功路二段55號,桃園市,桃園區,121.31579299999999,24.9941109,桃園成功直營門市,直營店
桃園市桃園區大有路648號,桃園市,桃園區,121.31682439999997,25.016228,桃園大有加盟門市,加盟店
桃園市桃園區龍安街121-1號,桃園市,桃園區,121.26036299999998,25.0004136,桃園龍安加盟門市,加盟店
桃園市桃園區中平路29號,桃園市,桃園區,121.29227300000002,24.989729,桃園中平加盟門市,加盟店
桃園市桃園區中正路1221之1號,桃園市,桃園區,121.29654720000008,25.0198564,桃園中正三加盟門市,加盟店
桃園市桃園區中正路20號B1,桃園市,桃園區,121.3126287,24.9916895,桃園遠百直營門市,直營店
桃園市桃園區中山路939號,桃園市,桃園區,121.28617180000003,24.9848335,桃園愛買直營門市,直營店
桃園市桃園區國際路一段1105-2號,桃園市,桃園區,121.28937799999994,24.986905,桃園國際加盟門市,加盟店
桃園市桃園區寶山街78號,桃園市,桃園區,121.31848160000004,25.0131747,桃園寶山加盟門市,加盟店
桃園市桃園區大興路172號,桃園市,桃園區,121.31135440000003,25.0158189,桃園大業加盟門市,加盟店
桃園市桃園區武陵里民生路28號,桃園市,桃園區,121.31582300000002,24.990631,桃園民生加盟門市,加盟店
桃園市桃園區民生路367號,桃園市,桃園區,121.31075659999999,24.9992545,桃園民生二加盟門市,加盟店
桃園市桃園區中正路931號,桃園市,桃園區,121.29995299999996,25.012443,桃園大興加盟門市,加盟店
桃園市桃園區永安路367之1號,桃園市,桃園區,121.29964700000005,24.999969,桃園永安加盟門市,加盟店
桃園市蘆竹區南山路一段2之5號,桃園市,蘆竹區,121.2917486,25.0502678,蘆竹南山直營門市,直營店
桃園市蘆竹區大竹路428-8號,桃園市,蘆竹區,121.26425670000003,25.0210296,桃園大竹二加盟門市,加盟店
桃園市蘆竹區南崁路225號,桃園市,蘆竹區,121.29339040000002,25.0485369,蘆竹南崁加盟門市,加盟店
桃園市蘆竹區南竹路一段51號1樓,桃園市,蘆竹區,121.29092579999997,25.0467178,蘆竹南竹加盟門市,加盟店
桃園市蘆竹區大竹路506之27號,桃園市,蘆竹區,121.26068190000001,25.0231333,桃園大竹加盟門市,加盟店
桃園市蘆竹區仁愛路三段1號,桃園市,蘆竹區,121.30015909999997,25.0533326,蘆竹仁愛加盟門市,加盟店
桃園市蘆竹區忠孝西路59號,桃園市,蘆竹區,121.29080599999998,25.0420822,蘆竹忠孝加盟門市,加盟店
桃園市蘆竹區中正路122號,桃園市,蘆竹區,121.29279010000005,25.0463822,南崁中正加盟門市,加盟店
桃園市龍潭區北龍路134號,桃園市,龍潭區,121.21428700000001,24.86616,龍潭北龍直營門市,直營店
桃園市龍潭區北龍路14號,桃園市,龍潭區,121.21149100000002,24.865094,龍潭北龍加盟門市,加盟店
桃園市龍潭區中正路147之1號,桃園市,龍潭區,121.21666099999993,24.86687,龍潭中正加盟門市,加盟店
桃園市龍潭區中興路345號,桃園市,龍潭區,121.23248039999999,24.873439,龍潭中興加盟門市,加盟店
桃園市中壢區延平路602號,桃園市,中壢區,121.22202700000003,24.9544649,中壢延平直營門市,直營店
桃園市中壢區中央西路一段102號1F,桃園市,中壢區,121.220913,24.958385,中壢中央直營門市,直營店
桃園市中壢區新生路266號,桃園市,中壢區,121.22311749999994,24.9633006,中壢新生直營門市,直營店
桃園市中壢區中華路一段198號,桃園市,中壢區,121.259499,24.973617,內壢中華直營門市,直營店
桃園市中壢區日新路75號,桃園市,中壢區,121.23984199999995,24.955233,中壢日新直營門市,直營店
桃園市中壢區中山東路二段126號,桃園市,中壢區,121.23915439999996,24.9531001,中壢中原加盟門市,加盟店
桃園市中壢區興南里新生路150號,桃園市,中壢區,121.22308350000003,24.9607296,中壢南區加盟門市,加盟店
桃園市中壢區大同路130號,桃園市,中壢區,121.22195290000002,24.9571009,中壢大同加盟門市,加盟店
桃園市中壢區中山東路四段126號,桃園市,中壢區,121.25728959999992,24.9355272,中壢中山東加盟門市,加盟店
桃園市中壢區忠孝路115號,桃園市,中壢區,121.25525900000002,24.97525,內壢忠孝加盟門市,加盟店
桃園市中壢區健行路179號,桃園市,中壢區,121.22805629999993,24.9484733,中壢健行加盟門市,加盟店
桃園市中壢區中北路二段458號1樓,桃園市,中壢區,121.23374519999993,24.9547425,中壢中北加盟門市,加盟店
桃園市中壢區中山路145號,桃園市,中壢區,121.22422959999994,24.9558003,中壢中山加盟門市,加盟店
桃園市平鎮區環南路2號1樓,桃園市,中壢區,121.20670339999992,24.9571955,中壢環南加盟門市,加盟店
桃園市中壢區幸福里福州二街466號,桃園市,中壢區,121.23262210000007,24.9678832,中壢中福加盟門市,加盟店
桃園市中壢區龍東路305號,桃園市,中壢區,121.25461300000006,24.9316809,中壢龍東直營門市,直營店
桃園市中壢區中正路351號,桃園市,中壢區,121.21656400000006,24.9552559,中壢中正加盟門市,加盟店
桃園市中壢區環中東路252號,桃園市,中壢區,121.25585899999999,24.9543589,內壢環中東二加盟門市,加盟店
桃園市中壢區中山東路三段198號,桃園市,中壢區,121.24977899999999,24.9427485,中壢中山東二加盟門市,加盟店
桃園市中壢區文化路354號,桃園市,中壢區,121.25100550000002,24.9790779,內壢文化加盟門市,加盟店
桃園市中壢區環中東路9號,桃園市,中壢區,121.26054850000003,24.9670313,內壢環中東加盟門市,加盟店
桃園市中壢區中華路一段294號,桃園市,中壢區,121.25810709999996,24.9730075,內壢站前加盟門市,加盟店
桃園市八德區介壽路一段884號,桃園市,八德區,121.29938199999992,24.9600609,桃園八德直營門市,直營店
桃園市八德區介壽路一段784號,桃園市,八德區,121.29991849999999,24.9630488,八德介壽二加盟門市,加盟店
桃園市八德區介壽路二段1188號,桃園市,八德區,121.29719869999997,24.9312422,八德更寮腳加盟門市,加盟店
桃園市八德區廣福路166號,桃園市,八德區,121.29545110000004,24.9597585,八德廣福加盟門市,加盟店
桃園市八德區大明里桃鶯路70號,桃園市,八德區,121.32731960000001,24.9706727,八德桃鶯加盟門市,加盟店
桃園市八德區介壽路一段999號,桃園市,八德區,121.29963399999997,24.9585459,八德介壽加盟門市,加盟店
桃園市新屋區中山路336號,桃園市,新屋區,121.10316650000004,24.9728066,新屋中山加盟門市,加盟店
彰化縣花壇鄉花壇村中正路292號1樓,彰化縣,花壇鄉,120.53988600000002,24.025947,花壇中正加盟門市,加盟店
彰化縣鹿港鎮中正路443號,彰化縣,鹿港鎮,120.43792899999994,24.0601047,鹿港中正直營門市,直營店
彰化縣鹿港鎮民權路163號,彰化縣,鹿港鎮,120.43526440000005,24.0566476,鹿港民權加盟門市,加盟店
彰化縣鹿港鎮中山路166號,彰化縣,鹿港鎮,120.43567400000006,24.0541719,鹿港中山直營門市,直營店
彰化縣彰化市光復路151號,彰化縣,彰化市,120.53976469999998,24.0806307,彰化光復加盟門市,加盟店
彰化縣彰化市彰南路一段429號1F,彰化縣,彰化市,120.57644260000006,24.0857944,彰化彰南直營門市,直營店
彰化縣彰化市三民路399-5號,彰化縣,彰化市,120.54683699999998,24.086555,彰化三民加盟門市,加盟店
彰化縣彰化市大埔路577號,彰化縣,彰化市,120.54261300000007,24.0661379,彰化大埔加盟門市,加盟店
彰化縣彰化市中正路二段590號,彰化縣,彰化市,120.53537200000005,24.069252,彰化中正三直營門市,直營店
彰化縣彰化市五權里彰美路一段281號,彰化縣,彰化市,120.53589490000002,24.0901016,彰化彰美加盟門市,加盟店
彰化縣彰化市中正路一段447號,彰化縣,彰化市,120.542282,24.0822979,彰化中正直營門市,直營店
彰化縣彰化市光復路1號,彰化縣,彰化市,120.54555800000003,24.080745,彰化中山直營門市,直營店
彰化縣彰化市曉陽路58號,彰化縣,彰化市,120.5412943,24.0722897,彰化曉陽直營門市,直營店
彰化縣和美鎮道周路531號,彰化縣,和美鎮,120.49321559999998,24.1098005,和美道周加盟門市,加盟店
彰化縣和美鎮彰美路五段388號,彰化縣,和美鎮,120.49864960000002,24.1121861,和美彰美直營門市,直營店
彰化縣伸港鄉新港村新港路119-1號,彰化縣,伸港鄉,120.48754400000007,24.144469,彰化伸港加盟門市,加盟店
桃園市大溪區慈湖路86號,桃園市,大溪區,121.2887495,24.8815759,大溪康莊加盟門市,加盟店
桃園市大溪區介壽路842號,桃園市,大溪區,121.28374250000002,24.9012277,桃園崎頂加盟門市,加盟店
桃園市大溪區一心里慈湖路43號1樓,桃園市,大溪區,121.28912650000007,24.8828107,桃園大溪加盟門市,加盟店
桃園市大園區菓林村三民路二段603號,桃園市,大園區,121.26078800000005,25.0750327,大園菓林加盟門市,加盟店
桃園市大園區航站南路9號1樓(入境服務中心),桃園市,大園區,121.23197600000003,25.077012,桃園機場二期直營門市,直營店
桃園市大園區中正東路151號,桃園市,大園區,121.20278699999994,25.0620346,大園中正東加盟門市,加盟店
桃園市大園區中山北路11號,桃園市,大園區,121.19703300000003,25.0643762,桃園大園加盟門市,加盟店
桃園市大園區航站南路15號1樓(入境服務中心),桃園市,大園區,121.23702100000003,25.0811,桃園機場一期直營門市,直營店
桃園市觀音區中山路二段713號,桃園市,觀音區,121.13699109999993,25.0125374,觀音新坡加盟門市,加盟店
桃園市觀音區草漯村大觀路二段171號,桃園市,觀音區,121.14055350000001,25.0453625,觀音草漯加盟門市,加盟店
彰化縣北斗鎮中華路150號,彰化縣,北斗鎮,120.52463699999998,23.8734291,北斗中華二加盟門市,加盟店
彰化縣北斗鎮中華路269號,彰化縣,北斗鎮,120.52167179999992,23.8729932,北斗中華加盟門市,加盟店
彰化縣埔心鄉東門村中正路1段292號,彰化縣,埔心鄉,120.54440899999997,23.951577,彰化埔心加盟門市,加盟店
彰化縣員林鎮靜修路52-16號,彰化縣,員林鎮,120.56906389999995,23.9624898,員林靜修直營門市,直營店
彰化縣員林鎮中山路二段85-12號,彰化縣,員林鎮,120.57062780000001,23.9620061,員林中山加盟門市,加盟店
彰化縣員林鎮大同路二段222號,彰化縣,員林鎮,120.57415360000005,23.9691157,員林大同加盟門市,加盟店
彰化縣員林鎮莒光路13號,彰化縣,員林鎮,120.56628699999999,23.951823,員林莒光加盟門市,加盟店
彰化縣員林鎮中山路一段749號,彰化縣,員林鎮,120.57068000000004,23.957076,員林站前加盟門市,加盟店
彰化縣員林鎮三民東街268號,彰化縣,員林鎮,120.58051550000005,23.9601289,員林三民東加盟門市,加盟店
彰化縣員林鎮民生路1號,彰化縣,員林鎮,120.57578799999999,23.956224,員林民生加盟門市,加盟店
彰化縣員林鎮中正路120號,彰化縣,員林鎮,120.57581359999995,23.9521493,員林中正直營門市,直營店
彰化縣員林鎮民權街2號,彰化縣,員林鎮,120.57178499999998,23.959565,員林民權直營門市,直營店
彰化縣永靖鄉湖璉路340號,彰化縣,永靖鄉,120.5460534,23.923942,彰化永靖加盟門市,加盟店
彰化縣溪湖鎮彰水路三段218號,彰化縣,溪湖鎮,120.48037620000002,23.9583019,溪湖彰水直營門市,直營店
彰化縣溪湖鎮彰水路三段389號,彰化縣,溪湖鎮,120.47999800000002,23.9619443,彰化溪湖加盟門市,加盟店
彰化縣溪湖鎮西環路195號,彰化縣,溪湖鎮,120.47708699999998,23.957079,溪湖西環直營門市,直營店
彰化縣大村鄉中山路二段292號,彰化縣,大村鄉,120.56423199999995,23.9887165,彰化大村加盟門市,加盟店
彰化縣社頭鄉社頭村員集路2段301號1樓,彰化縣,社頭鄉,120.58706910000001,23.9001287,彰化社頭加盟門市,加盟店
彰化縣田中鎮中州路一段66號,彰化縣,田中鎮,120.58957639999994,23.8582955,田中站前加盟門市,加盟店
彰化縣田中鎮中州路一段200號,彰化縣,田中鎮,120.58658930000001,23.8579514,田中中州直營門市,直營店
彰化縣埤頭鄉斗苑西路243號1樓,彰化縣,埤頭鄉,120.4597804,23.8915854,彰化埤頭加盟門市,加盟店
台北市中正區南昌路一段35號,台北市,中正區,121.51702419999992,25.0316804,台北南昌直營門市,直營店
台北市中正區館前路43號,台北市,中正區,121.51512739999998,25.0453997,台北館前直營門市,直營店
台北市中正區衡陽路41號,台北市,中正區,121.51244700000007,25.042411,台北衡陽直營門市,直營店
台北市中正區市民大道３段２號,台北市,中正區,121.53112729999998,25.0454815,台北資訊園區,直營店
台北市中正區忠孝西路一段49號B1(捷運地下街近M8出口),台北市,中正區,121.51789600000006,25.046374,台北車站直營門市,直營店
台北市中正區公園路22-2號&22-3號2樓,台北市,中正區,121.51696300000003,25.0451339,站前暢貨中心直營門市,直營店
台北市中正區汀州路三段145號,台北市,中正區,121.53113200000007,25.016001,台北汀州加盟門市,加盟店
台北市中正區館前路43號B1,台北市,中正區,121.51512739999998,25.0453997,台北維修中心,直營店
台北市中正區中華路二段333號,台北市,中正區,121.50663889999998,25.0274648,萬華中華加盟門市,加盟店
彰化縣二林鎮新生路20號,彰化縣,二林鎮,120.36895490000006,23.8998094,二林新生直營門市,直營店
彰化縣二林鎮斗苑路五段115號,彰化縣,二林鎮,120.36938429999998,23.9001348,彰化二林加盟門市,加盟店
台北市萬華區漢中街35號,台北市,萬華區,121.50779590000002,25.0449069,台北西門直營門市,直營店
台北市萬華區萬大路290號,台北市,萬華區,121.50025400000004,25.0253265,台北萬大直營門市,直營店
台北市萬華區西寧南路62號,台北市,萬華區,121.50611800000001,25.0438099,台北西寧南直營門市,直營店
台北市萬華區西園路二段227之1號,台北市,萬華區,121.49388290000002,25.0268505,台北西園直營門市,直營店
台北市萬華區西藏路121號,台北市,萬華區,121.50260100000003,25.029536,萬華西藏加盟門市,加盟店
台北市萬華區西園路一段214號,台北市,萬華區,121.49922949999996,25.0355803,台北龍山寺直營門市,直營店
台北市萬華區萬大路461號,台北市,萬華區,121.4983254,25.0206479,萬華萬大加盟門市,加盟店
台北市萬華區桂林路123號,台北市,萬華區,121.50028789999999,25.0385787,萬華桂林加盟門市,加盟店
台北市大同區民生西路57號,台北市,大同區,121.52032499999996,25.0577277,台北雙連直營門市,直營店
台北市大同區民族西路64號,台北市,大同區,121.51817230000006,25.0683664,台北承德加盟門市,加盟店
台北市大同區延平北路三段74號,台北市,大同區,121.51092829999993,25.0655561,台北延三直營門市,直營店
台北市大同區重慶北路二段136號,台北市,大同區,121.51356169999997,25.0582032,台北重慶加盟門市,加盟店
台北市大同區酒泉街78號,台北市,大同區,121.51500009999995,25.0718985,台北酒泉加盟門市,加盟店
台北市大同區延平北路二段111號,台北市,大同區,121.51169400000003,25.057105,台北延平北直營門市,直營店
台北市信義區忠孝東路五段436號,台北市,信義區,121.57583899999997,25.040684,台北永春直營門市,直營店
台北市信義區松壽路20號,台北市,信義區,121.56709890000002,25.0356356,信義威秀直營門市,直營店
台北市信義區福德街189號,台北市,信義區,121.5841514,25.0382651,台北中坡南直營門市,直營店
台北市信義區忠孝東路五段137號1樓及B1,台北市,信義區,121.56782520000002,25.0412647,忠孝市府直營門市,直營店
台北市信義區莊敬路471號,台北市,信義區,121.56802949999997,25.0269056,台北莊敬直營門市,直營店
台北市信義區忠孝東路五段623號,台北市,信義區,121.57918100000006,25.04178,信義忠孝直營門市,直營店
台北市信義區松山路317號,台北市,信義區,121.57805200000007,25.042113,台北松山加盟門市,加盟店
台北市大安區敦化南路二段209號1樓,台北市,大安區,121.54931599999998,25.025786,台北遠企直營門市,直營店
台北市大安區忠孝東路三段227號,台北市,大安區,121.54024159999994,25.0418945,台北忠孝直營門市,直營店
台北市大安區和平東路一段159號,台北市,大安區,121.53135969999994,25.0265926,台北師大直營門市,直營店
台北市大安區羅斯福路三段329號,台北市,大安區,121.53232100000002,25.017023,台大公館直營門市,直營店
台北市大安區復興南路二段80號,台北市,大安區,121.54340619999994,25.0310344,台北復興南直營門市,直營店
台北市大安區永康街11號,台北市,大安區,121.52986599999997,25.032839,台北永康直營門市,直營店
台北市大安區通化街17之3號,台北市,大安區,121.55433189999997,25.0319364,台北通化直營門市,直營店
台北市大安區通化街99號,台北市,大安區,121.55421189999993,25.0297297,台北通化加盟門市,加盟店
台北市大安區復興南路一段153號,台北市,大安區,121.54406440000002,25.0421557,忠孝復興直營門市,直營店
台北市大安區和平東路二段169號,台北市,大安區,121.54162930000007,25.0253206,台北和平東直營門市,直營店
台北市大安區光復南路454號,台北市,大安區,121.5572833,25.0355529,台北光復南直營門市,直營店
台北市大安區延吉街154號,台北市,大安區,121.55481669999995,25.0396251,台北延吉直營門市,直營店
台北市大安區安居街24號,台北市,大安區,121.55467369999997,25.0209163,台北安居直營門市,直營店
台北市大安區信義路四段42號,台北市,大安區,121.5450366,25.0331843,台北信義直營門市,直營店
台北市大安區復興南路一段261-2號,台北市,大安區,121.54389930000002,25.0362222,台北復興南二直營門市,直營店
台北市中山區 農安街17號,台北市,中山區,121.52392750000001,25.0650269,台北農安直營門市,直營店
台北市中山區民權東路三段59號,台北市,中山區,121.54314720000002,25.0625515,台北民權東直營門市,直營店
台北市中山區南京東路二段72號,台北市,中山區,121.53083349999997,25.0518014,台北南京二直營門市,直營店
台北市中山區林森北路260號,台北市,中山區,121.52529260000006,25.0545782,台北林森北直營門市,直營店
台北市中山區北安路542之1號,台北市,中山區,121.54787590000001,25.0800149,大直北安直營門市,直營店
台北市中山區南京東路三段210號,台北市,中山區,121.543275,25.0516888,台北南京三直營門市,直營店
台北市中山區興安街98號,台北市,中山區,121.542417,25.05581,台北興安直營門市,直營店
台北市中山區民權西路42號,台北市,中山區,121.52091300000006,25.0626205,中山民權二直營門市,直營店
台北市中山區錦州街423號,台北市,中山區,121.54225900000006,25.0603209,台北錦州直營門市,直營店
台北市中山區林森北路121號,台北市,中山區,121.5251558,25.0508214,台北林森北二直營門市,直營店
台北市中山區吉林路296號,台北市,中山區,121.53012639999997,25.0612997,台北吉林加盟門市,加盟店
台北市中山區南京東路二段202號1樓,台北市,中山區,121.535435,25.051719,南京建國直營門市,直營店
台北市中山區龍江路356巷17號,台北市,中山區,121.54021139999998,25.0661263,台北龍江加盟門市,加盟店
台北市中山區林森北路410之2號,台北市,中山區,121.52537929999994,25.0595258,台北林森加盟門市,加盟店
台北市松山區八德路四段717號,台北市,松山區,121.57706819999999,25.0501013,松山饒河直營門市,直營店
台北市松山區八德路三段114號,台北市,松山區,121.55380560000003,25.0480389,台北八德直營門市,直營店
台北市松山區南京東路五段70號,台北市,松山區,121.56097550000004,25.0512618,台北南京東直營門市,直營店
台北市松山區民生東路四段99號,台北市,松山區,121.55224299999998,25.058204,台北民生東直營門市,直營店
台北市松山區復興南路一段35號,台北市,松山區,121.54415979999999,25.0461738,台北微風直營門市,直營店
台北市松山區南京東路四段107號,台北市,松山區,121.55466550000006,25.0518737,台北寧安直營門市,直營店
台北市松山區民生東路五段121號,台北市,松山區,121.56092579999995,25.0588599,台北民生東二直營門市,直營店
台北市松山區東興路28號,台北市,松山區,121.56556239999998,25.0484048,台北東興加盟門市,加盟店
台北市文山區羅斯福路五段215號,台北市,文山區,121.53912400000002,25.002185,景美萬隆直營門市,直營店
台北市文山區興隆路三段92號,台北市,文山區,121.5568379,24.9995493,台北萬芳直營門市,直營店
台北市文山區景興路183號1F,台北市,文山區,121.54441759999997,24.9927392,文山景興直營門市,直營店
台北市文山區興隆路三段130號,台北市,文山區,121.55782440000007,24.998923,文山萬芳加盟門市,加盟店
台北市文山區羅斯福路六段228號,台北市,文山區,121.5404681,24.9926512,台北景美直營門市,直營店
台北市文山區木新路三段167號,台北市,文山區,121.56081219999999,24.9815817,木柵木新加盟門市,加盟店
台北市文山區木柵路三段101號,台北市,文山區,121.56798300000003,24.9888979,文山木柵加盟門市,加盟店
台北市北投區石牌路二段77號,台北市,北投區,121.51605510000002,25.1166734,北投石牌直營門市,直營店
"台北市北投區光明路162,164號",台北市,北投區,121.502609,25.134887,北投光明直營門市,直營店
台北市北投區自強街72號1F,台北市,北投區,121.51428299999998,25.1104718,北投自強直營門市,直營店
台北市北投區明德路121號1F,台北市,北投區,121.51998129999993,25.1099644,北投明德門市,直營店
台北市北投區光明路61號,台北市,北投區,121.49988570000005,25.1329088,北投光明二加盟門市,加盟店
台北市北投區中和街232號,台北市,北投區,121.50161600000001,25.139295,台北北投加盟門市,加盟店
基隆市信義區深溪路184號,基隆市,信義區,121.78289080000002,25.1347723,基隆深溪加盟門市,加盟店
台北市士林區忠誠路一段36號,台北市,士林區,121.52636099999995,25.104535,天母忠誠直營門市,直營店
台北市士林區中正路387號,台北市,士林區,121.52153299999998,25.094092,士林中正直營門市,直營店
台北市士林區文林路55號,台北市,士林區,121.5256435,25.0871112,士林文林直營門市,直營店
台北市士林區天母西路15之2號,台北市,士林區,121.52831289999995,25.1185516,台北天母西直營門市,直營店
台北市士林區福國路42號1F,台北市,士林區,121.52399200000002,25.1022589,士林芝山直營門市,直營店
台北市士林區延平北路五段309號,台北市,士林區,121.50925819999998,25.0862791,台北延五直營門市,直營店
台北市士林區德行東路197號,台北市,士林區,121.53192850000005,25.1090716,台北德行東加盟門市,直營店
台北市士林區士東路128號,台北市,士林區,121.53024260000007,25.1121731,天母士東直營門市,直營店
台北市士林區文林路195號,台北市,士林區,121.52692209999998,25.0898331,士林文林加盟門市,加盟店
基隆市中正區義一路26號1F,基隆市,中正區,121.74527109999997,25.1323667,基隆義一直營門市,直營店
台北市南港區忠孝東路六段412號,台北市,南港區,121.59291630000007,25.0499932,台北昆陽直營門市,直營店
台北市南港區忠孝東路七段618號,台北市,南港區,121.61584960000005,25.0529687,南港忠孝加盟門市,加盟店
台北市南港區南港路一段163號,台北市,南港區,121.61343999999997,25.0551114,台北南港直營門市,直營店
台北市南港區忠孝東路五段1000號,台北市,南港區,121.5827888,25.0450089,台北後山埤直營門市,直營店
台北市內湖區瑞光路468號,台北市,內湖區,121.56994299999997,25.078345,內湖瑞光直營門市,直營店
台北市內湖區成功路四段52號,台北市,內湖區,121.59224010000003,25.0823393,內湖成功直營門市,直營店
台北市內湖區內湖路一段317號,台北市,內湖區,121.56771830000002,25.082322,台北西湖直營門市,直營店
台北市內湖區東湖路123號,台北市,內湖區,121.61656249999999,25.0683017,內湖東湖直營門市,直營店
台北市內湖區康寧路三段21號,台北市,內湖區,121.60728369999993,25.0728615,內湖葫洲直營門市,直營店
台北市內湖區內湖路一段602號,台北市,內湖區,121.57828280000001,25.0786644,內湖內湖加盟門市,加盟店
台北市內湖區成功路三段95號,台北市,內湖區,121.58971280000003,25.0786958,內湖成功二加盟門市,加盟店
基隆市仁愛區仁五路6號,基隆市,仁愛區,121.74150699999996,25.1272009,基隆仁五直營門市,直營店
基隆市仁愛區仁一路197號,基隆市,仁愛區,121.75054999999998,25.12795,基隆仁一直營門市,直營店
基隆市仁愛區仁二路185號,基隆市,仁愛區,121.74489700000004,25.1285373,基隆仁二直營門市,直營店
基隆市仁愛區忠一路9號,基隆市,仁愛區,121.74034200000006,25.130789,基隆忠一直營門市,直營店
基隆市中山區安一路71號,基隆市,中山區,121.73592899999994,25.131247,基隆安一加盟門市,加盟店
基隆市七堵區明德一路108號,基隆市,七堵區,121.71600349999994,25.0985747,七堵明德加盟門市,加盟店
基隆市暖暖區暖暖街179號,基隆市,暖暖區,121.73594830000002,25.0993202,基隆暖暖加盟門市,加盟店
新北市汐止區中興路129號,新北市,汐止區,121.63180119999993,25.0654144,汐止中興直營門市,直營店
新北市汐止區樟樹一路117號,新北市,汐止區,121.64191700000003,25.0642169,汐止樟樹直營門市,直營店
新北市汐止區大同路二段428號,新北市,汐止區,121.65897399999994,25.067004,汐止大同加盟門市,加盟店
新北市汐止區忠孝東路202號,新北市,汐止區,121.66190729999994,25.0664248,汐止忠孝加盟門市,加盟店
新北市汐止區中興路210號,新北市,汐止區,121.63126699999998,25.06629,汐止中興加盟門市,加盟店
新北市汐止區連興路131號,新北市,汐止區,121.654001,25.0618419,汐止連興加盟門市,加盟店
新北市金山區中山路116號1樓,新北市,金山區,121.63926630000003,25.2199793,金山中山二加盟門市,加盟店
新北市深坑區埔新街60號,新北市,深坑區,121.62020600000005,25.0025814,台北深坑加盟門市,加盟店
新北市板橋區四川路一段261號,新北市,板橋區,121.45962459999998,25.002191,板橋四川直營門市,直營店
新北市板橋區雙十路二段71號,新北市,板橋區,121.47607979999998,25.0268256,板橋雙十直營門市,直營店
新北市板橋區館前東路18號,新北市,板橋區,121.45999140000004,25.0070074,板橋館前東直營門市,直營店
新北市板橋區府中路59號,新北市,板橋區,121.45817699999998,25.0090979,板橋府中直營門市,直營店
新北市板橋區民生路三段19號,新北市,板橋區,121.46698600000002,25.0238869,板橋民生直營門市,直營店
新北市板橋區中正路287號,新北市,板橋區,121.45544080000002,25.0191382,板橋中正加盟門市,加盟店
新北市板橋區中山路二段265號,新北市,板橋區,121.47765700000002,25.0178119,板橋埔墘直營門市,直營店
新北市板橋區國慶路145號,新北市,板橋區,121.46136709999996,24.996024,板橋國慶直營門市,直營店
新北市板橋區四維路282號,新北市,板橋區,121.46306600000003,25.028826,板橋四維直營門市,直營店
新北市板橋區忠孝路146號,新北市,板橋區,121.46391399999993,25.0022429,板橋忠孝加盟門市,加盟店
新北市板橋區新海路132號1樓,新北市,板橋區,121.4610649,25.0232126,板橋新海加盟門市,加盟店
新北市板橋區篤行路三段玉平巷76弄25號,新北市,板橋區,121.427236,24.985727,樹林篤行加盟門市,加盟店
新北市板橋區莒光路46號,新北市,板橋區,121.47057799999993,25.0243378,板橋莒光直營門市,直營店
新北市板橋區中正路156號,新北市,板橋區,121.45670199999995,25.0168089,板橋中正直營門市,直營店
新北市板橋區民治街132號,新北市,板橋區,121.47773540000003,25.0309646,板橋民治直營門市,直營店
新北市板橋區南雅南路一段93號,新北市,板橋區,121.45557080000003,25.0051875,板橋南雅加盟門市,加盟店
"新北市板橋區三民路二段141,143號",新北市,板橋區,121.47938350000004,25.0151747,板橋三民加盟門市,加盟店
新北市板橋區文化路二段400號,新北市,板橋區,121.4740663,25.0313609,板橋江子翠加盟門市,加盟店
新北市板橋區四維路318號,新北市,板橋區,121.46243230000005,25.0300906,板橋四維加盟門市,加盟店
新北市板橋區中山路二段104號,新北市,板橋區,121.47579189999999,25.016533,板橋埔墘加盟門市,加盟店
新北市板橋市中山路2段62號9F之三,新北市,板橋區,121.47417399999995,25.015651,板橋維修站,直營店
新北市板橋區貴興路101號2樓,新北市,板橋區,121.45619499999998,25.002656,南雅愛買直營門市,直營店
新北市板橋區新站路28號B1,新北市,板橋區,121.46687320000001,25.013487,板橋遠百直營門市,直營店
新北市板橋區文化路一段206號,新北市,板橋區,121.46641820000002,25.0201179,板橋文化加盟門市,加盟店
基隆市安樂區安樂路二段149號,基隆市,安樂區,121.72389499999997,25.121055,基隆安樂直營門市,直營店
基隆市安樂區基金一路174之12號,基隆市,安樂區,121.71086459999992,25.1412276,基隆大武崙加盟門市,加盟店
新北市瑞芳區明燈路三段30之1號,新北市,瑞芳區,121.80840319999993,25.1078245,台北瑞芳加盟門市,加盟店
新北市瑞芳區民生街16號,新北市,瑞芳區,121.80585559999997,25.1077039,瑞芳民生加盟門市,加盟店
新北市土城區中央路二段95號,新北市,土城區,121.44236799999999,24.977923,土城中央直營門市,直營店
新北市土城區金城路三段21號,新北市,土城區,121.46506499999998,24.986673,土城金城直營門市,直營店
新北市土城區裕民路157號,新北市,土城區,121.45230650000008,24.9859426,土城裕民直營門市,直營店
新北市土城區裕民路33號,新北市,土城區,121.44833800000004,24.988493,土城裕民二加盟門市,加盟店
新北市土城區中央路三段46號,新北市,土城區,121.43700420000005,24.9679561,土城永寧直營門市,直營店
新北市土城區學府路一段36號,新北市,土城區,121.45810529999994,24.9886833,土城學府加盟門市,加盟店
新北市土城區金城路三段175號,新北市,土城區,121.46785490000002,24.987731,土城金城加盟門市,加盟店
新北市土城區明德路一段16號,新北市,土城區,121.46482509999998,24.9850744,土城明德加盟門市,加盟店
新北市永和區永和路一段55號,新北市,永和區,121.51288499999998,25.0067669,永和永和直營門市,直營店
新北市永和區竹林路222號,新北市,永和區,121.52069919999997,25.007961,永和竹林直營門市,直營店
新北市永和區成功路二段141號,新北市,永和區,121.52672230000007,24.9979144,永和成功直營門市,直營店
新北市永和區中山路一段213號,新北市,永和區,121.50840900000003,25.008163,永和中山直營門市,直營店
新北市永和區中正路302號,新北市,永和區,121.51730410000005,24.9991217,永和中正直營門市,直營店
新北市永和區永和路二段96號,新北市,永和區,121.51508710000007,25.0116952,永和頂溪直營門市,直營店
新北市永和區中和路449號,新北市,永和區,121.50978350000003,25.001366,永和中和直營門市,直營店
新北市永和區福和路269號,新北市,永和區,121.51776280000001,25.0072636,永和福和直營門市,直營店
新北市永和區中正路11號,新北市,永和區,121.51403219999997,24.9957344,永和智光加盟門市,加盟店
新北市永和區得和路229號,新北市,永和區,121.51993600000003,25.000156,永和秀朗加盟門市,加盟店
新北市新店區北新路一段263號,新北市,新店區,121.54087800000002,24.9664817,新店北新一直營門市,直營店
新北市新店區北新路二段200號,新北市,新店區,121.54312700000003,24.9767187,新店北新二直營門市,直營店
新北市新店區北宜路一段3號,新北市,新店區,121.53958399999999,24.954696,新店北宜直營門市,直營店
新北市新店區民權路42之1號,新北市,新店區,121.54042700000002,24.9830475,新店大坪林直營門市,直營店
新北市新店區中正路209號,新北市,新店區,121.54007049999996,24.9725727,新店中正直營門市,直營店
新北市新店區安康路二段200-1號,新北市,新店區,121.51049469999998,24.959769,新店安康直營門市,直營店
新北市新店區安康路二段46號,新北市,新店區,121.51538400000004,24.963994,新店安康加盟門市,加盟店
新北市樹林區中山路一段174號,新北市,樹林區,121.42183490000002,24.9890663,樹林中山加盟門市,加盟店
新北市樹林區博愛一街12號,新北市,樹林區,121.42543799999999,24.9910209,樹林博愛直營門市,直營店
新北市樹林區保安街一段53號,新北市,樹林區,121.42354799999998,24.99469,樹林保安加盟門市,加盟店
新北市樹林區大安路593號,新北市,樹林區,121.41199699999993,24.9832929,樹林大安加盟門市,加盟店
新北市樹林區太元街13號,新北市,樹林區,121.41800130000001,24.9804664,樹林中華加盟門市,加盟店
新北市樹林區中山路一段36號,新北市,樹林區,121.42370400000004,24.9924049,樹林中山二加盟門市,加盟店
新北市中和區連城路469之1號,新北市,中和區,121.4834131,24.995761,中和連城直營門市,直營店
新北市中和區景安路33號,新北市,中和區,121.50770399999999,24.9986826,中和景安直營門市,直營店
新北市中和區興南路一段72號,新北市,中和區,121.51055169999995,24.9901285,中和興南直營門市,直營店
新北市中和區中山路三段125之4號,新北市,中和區,121.47427820000007,25.0059616,中和環球直營門市,直營店
新北市中和區連城路339號,新北市,中和區,121.48831999999993,24.996072,中和連城二直營門市,直營店
新北市中和區莒光路35號,新北市,中和區,121.4722084,25.0052089,中和莒光加盟門市,加盟店
新北市中和區景平路480號,新北市,中和區,121.50520549999999,24.9937383,中和景平加盟門市,加盟店
新北市中和區景新街443號,新北市,中和區,121.51309900000001,24.9888156,中和景新直營門市,直營店
新北市中和區員山路325號,新北市,中和區,121.48113799999999,25.00081,中和員山加盟門市,加盟店
新北市中和區中和路153號,新北市,中和區,121.50266599999998,24.9998529,中和中和加盟門市,加盟店
新北市中和區忠孝街99之3號,新北市,中和區,121.51201070000002,24.98596,中和忠孝加盟門市,加盟店
新北市中和區連城路4號,新北市,中和區,121.49917800000003,25.0024429,中和中山二加盟門市,加盟店
新北市三峽區光明路14號1樓,新北市,三峽區,121.373153,24.9310326,三峽光明加盟門市,加盟店
新北市三峽區復興路46號,新北市,三峽區,121.37377949999996,24.9369614,三峽復興加盟門市,加盟店
新北市三峽區文化路96號1樓,新北市,三峽區,121.37169100000006,24.936206,三峽文化加盟門市,加盟店
新北市三峽區民生街111之2號,新北市,三峽區,121.3740004,24.9355636,三峽民生直營門市,直營店
新北市三峽區大學路160號,新北市,三峽區,121.37209250000001,24.947073,三峽北大加盟門市,加盟店
新北市鶯歌區南昌街2號,新北市,鶯歌區,121.35011780000002,24.9536219,鶯歌南昌加盟門市,加盟店
新北市鶯歌區鶯桃路二段52號,新北市,鶯歌區,121.32521369999995,24.9729312,桃園鶯桃加盟門市,加盟店
新北市鶯歌區建國路135號,新北市,鶯歌區,121.3514252,24.953899,鶯歌建國加盟門市,加盟店
新北市三重區正義北路186號,新北市,三重區,121.49633519999998,25.0667253,三重正義北直營門市,直營店
新北市三重區重新路一段127號,新北市,三重區,121.50008550000007,25.0632252,三重重新一直營門市,直營店
新北市三重區重新路二段100號,新北市,三重區,121.49690199999998,25.061558,三重重新二直營門市,直營店
新北市三重區忠孝路二段85號,新北市,三重區,121.48429299999998,25.070267,三重忠孝加盟門市,加盟店
新北市三重區三和路四段376號,新北市,三重區,121.48273960000006,25.0787371,三重三和二直營門市,直營店
新北市三重區自強路一段266號,新北市,三重區,121.49238609999998,25.0675149,三重自強直營門市,直營店
新北市三重區三和路二段12之1號,新北市,三重區,121.50095850000002,25.0669313,三重三和加盟門市,加盟店
新北市三重區五華街108號,新北市,三重區,121.49239720000003,25.082723,三重五華加盟門市,加盟店
新北市三重區集成路37號,新北市,三重區,121.48934699999995,25.05232,三重集成直營門市,直營店
新北市三重區三民路163號1樓,新北市,三重區,121.47130029999994,25.0870678,三重三民二加盟門市,加盟店
新北市三重區中央北路134號之1,新北市,三重區,121.49970009999993,25.0681602,三重中央北直營門市,直營店
新北市三重區溪尾街172號,新北市,三重區,121.48860190000005,25.080453,三重溪尾加盟門市,加盟店
新北市三重區忠孝路二段134號,新北市,三重區,121.48273640000002,25.0684777,三重忠孝二加盟門市,加盟店
新北市三重區力行路二段103號,新北市,三重區,121.48283000000004,25.076025,三重力行加盟門市,加盟店
新北市新莊區新泰路264號,新北市,新莊區,121.44605290000004,25.0401472,新莊新泰直營門市,直營店
新北市新莊區昌平街4號1樓,新北市,新莊區,121.45484510000006,25.0524383,新莊昌平直營門市,直營店
新北市新莊區建福路64號,新北市,新莊區,121.42661099999998,25.027019,新莊建福直營門市,直營店
新北市新莊區民安西路58號,新北市,新莊區,121.42721959999994,25.0204581,新莊光華直營門市,直營店
新北市新莊區民安西路168號,新北市,新莊區,121.42588209999997,25.016114,新莊民安西加盟門市,加盟店
新北市新莊區幸福路624號,新北市,新莊區,121.45113909999998,25.0493089,新莊幸福直營門市,直營店
新北市新莊區富國路21號,新北市,新莊區,121.41865200000007,25.026543,新莊富國加盟門市,加盟店
新北市新莊區四維路97巷26號,新北市,新莊區,121.42434100000003,25.023251,新莊四維直營門市,直營店
新北市新莊區中平路293號,新北市,新莊區,121.44461320000005,25.0509605,新莊中平直營門市,直營店
新北市新莊區民安西路301號,新北市,新莊區,121.42676540000002,25.0118478,新莊西盛直營門市,直營店
新北市新莊區富國路178號,新北市,新莊區,121.42434700000001,25.024443,新莊民安加盟門市,加盟店
新北市新莊區中正路301號,新北市,新莊區,121.44849499999998,25.034953,新莊中正直營門市,直營店
新北市新莊區化成路205號,新北市,新莊區,121.46575899999993,25.05101,新莊化成直營門市,直營店
新北市新莊區幸福路537號1樓,新北市,新莊區,121.45504040000003,25.0491869,新莊幸福二直營門市,直營店
新北市新莊區幸福路769號,新北市,新莊區,121.44714240000008,25.0489241,新莊中和加盟門市,加盟店
新北市新莊區幸福路38號,新北市,新莊區,121.45800940000004,25.0495092,新莊幸福加盟門市,加盟店
新北市新莊區中港路295號,新北市,新莊區,121.45278830000007,25.0442786,新莊中港加盟門市,加盟店
新北市新莊區中華路一段62號,新北市,新莊區,121.4521393,25.0386583,新莊中華加盟門市,加盟店
新北市新莊區中平路51號,新北市,新莊區,121.44458099999997,25.044441,新莊中平二加盟門市,加盟店
新北市泰山區泰林路二段180號,新北市,泰山區,121.43390369999997,25.0607507,泰山泰林直營門市,直營店
新北市泰山區明志路二段38號,新北市,泰山區,121.4295793,25.053125,泰山明志二加盟門市,加盟店
新北市泰山區明志路三段159號,新北市,泰山區,121.42473240000004,25.039664,泰山明志直營門市,直營店
新北市泰山區明志路一段180號,新北市,泰山區,121.43307709999999,25.0623863,泰山明志加盟門市,加盟店
新北市五股區成泰路二段101號1F,新北市,五股區,121.43893479999997,25.0862144,新北成泰直營門市,直營店
新北市五股區成泰路二段45號,新北市,五股區,121.43757490000007,25.0827828,五股成泰加盟門市,加盟店
新北市五股區成泰路二段45號,新北市,五股區,121.4371797,25.0816135,五股成泰加盟門市,加盟店
新北市林口區竹林路33號,新北市,林口區,121.38688580000007,25.0774564,林口竹林直營門市,直營店
新北市林口區忠孝路502號,新北市,林口區,121.37077350000004,25.0700368,林口文化加盟門市,加盟店
宜蘭縣宜蘭市宜興路一段261號,宜蘭縣,宜蘭市,121.75813689999995,24.7565318,宜蘭宜興直營門市,直營店
宜蘭縣宜蘭市中山路三段37號,宜蘭縣,宜蘭市,121.75220230000002,24.7562979,宜蘭中山直營門市,直營店
宜蘭縣宜蘭市神農路二段2號,宜蘭縣,宜蘭市,121.75066429999993,24.7498878,宜蘭健康加盟門市,加盟店
宜蘭縣宜蘭市復興路二段116號,宜蘭縣,宜蘭市,121.74693159999993,24.7493082,宜蘭復中加盟門市,加盟店
新北市蘆洲區光華路16號,新北市,蘆洲區,121.46965649999993,25.0834744,蘆洲光華加盟門市,加盟店
新北市蘆洲區三民路1號,新北市,蘆洲區,121.47576240000001,25.0819017,蘆洲三民一加盟門市,加盟店
新北市蘆洲區中華街3號,新北市,蘆洲區,121.46408959999997,25.0817055,蘆洲長榮直營門市,直營店
新北市蘆洲區復興路84號,新北市,蘆洲區,121.47541279999996,25.0866932,蘆洲復興直營門市,直營店
新北市蘆洲區三民路122號之一,新北市,蘆洲區,121.47117879999996,25.0874115,蘆洲三民三加盟門市,加盟店
新北市蘆洲區民族路315號,新北市,蘆洲區,121.47451909999995,25.091398,蘆洲民族二加盟門市,加盟店
新北市蘆洲區民族路111號,新北市,蘆洲區,121.47962610000002,25.0868692,蘆洲民族加盟門市,加盟店
新北市蘆洲區長安街87號,新北市,蘆洲區,121.462132,25.080309,蘆洲長安加盟門市,加盟店
新北市蘆洲區中原路30號,新北市,蘆洲區,121.46002069999997,25.0828094,蘆洲中原加盟門市,加盟店
新北市八里區中山路二段510號,新北市,八里區,121.39809889999992,25.1468258,八里中山加盟門市,加盟店
新北市淡水區北新路14號,新北市,淡水區,121.44472969999993,25.1775962,淡水北新加盟門市,加盟店
新北市淡水區英專路76號,新北市,淡水區,121.44572419999997,25.1710881,淡水英專直營門市,直營店
新北市淡水區中山北路一段51號,新北市,淡水區,121.44177609999997,25.1755152,淡水中山北直營門市,直營店
新北市淡水區中山路110號,新北市,淡水區,121.442136,25.17082,淡水中山加盟門市,加盟店
新北市淡水區中山北路二段1號,新北市,淡水區,121.44422540000005,25.1853517,淡水學府加盟門市,加盟店
新北市淡水區民權路171號,新北市,淡水區,121.45971750000001,25.1447951,淡水竹圍加盟門市,加盟店
宜蘭縣礁溪鄉礁溪路五段22號,宜蘭縣,礁溪鄉,121.77101500000003,24.8246631,宜蘭礁溪加盟門市,加盟店
宜蘭縣五結鄉中正路三段122號,宜蘭縣,五結鄉,121.77137809999999,24.7058277,宜蘭五結加盟門市,加盟店
新竹市北區中正路259號,新竹市,北區,120.963841,24.812613,新竹中正直營門市,直營店
新竹市北區西大路469號,新竹市,北區,120.96322320000002,24.8048302,新竹西大加盟門市,加盟店
新竹市湳雅街24號,新竹市,北區,120.97024999999996,24.8174251,新竹湳雅加盟門市,加盟店
新竹市北區經國路二段535號,新竹市,北區,120.9555451,24.8042533,新竹經國加盟門市,加盟店
宜蘭縣蘇澳鎮蘇北里太平路29號,宜蘭縣,蘇澳鎮,121.85141629999998,24.5959396,宜蘭蘇澳加盟門市,加盟店
宜蘭縣羅東鎮倉前路85號,宜蘭縣,羅東鎮,121.76964799999996,24.680724,宜蘭羅東直營門市,直營店
宜蘭縣羅東鎮中正路140號,宜蘭縣,羅東鎮,121.77155399999992,24.6763238,羅東中正加盟門市,加盟店
宜蘭縣羅東鎮民權路166號,宜蘭縣,羅東鎮,121.76557249999996,24.6766995,羅東民權直營門市,直營店
宜蘭縣羅東鎮中正南路197號,宜蘭縣,羅東鎮,121.77013820000002,24.672582,羅東中正南加盟門市,加盟店
宜蘭縣羅東鎮興東路2之3號,宜蘭縣,羅東鎮,121.76765590000002,24.6752717,羅東興東加盟門市,加盟店
新竹市香山區中華路五段10號,新竹市,香山區,120.92828299999996,24.788592,新竹香山加盟門市,加盟店
新竹市東區中正路2號,新竹市,東區,120.97159710000005,24.8027491,新竹竹塹直營門市,直營店
新竹市東區公道五路二段469號,新竹市,東區,120.99297090000005,24.8044459,新竹愛買直營門市,直營店
新竹市東區中央路229號B1,新竹市,東區,120.97478019999994,24.8090149,新竹巨城直營門市,直營店
新竹市東區建功路11號,新竹市,東區,120.99812710000003,24.7964761,新竹建功直營門市,直營店
新竹市東區南大路315號,新竹市,東區,120.97035740000001,24.7978304,新竹南大直營門市,直營店
新竹市東區光復路一段184號,新竹市,東區,121.02226799999994,24.781871,新竹竹科直營門市,直營店
新竹市東區林森路101號,新竹市,東區,120.96711929999992,24.8006927,新竹林森加盟門市,加盟店
宜蘭縣冬山鄉義成路三段516號,宜蘭縣,冬山鄉,121.76838040000007,24.6681851,宜蘭冬山加盟門市,加盟店
新竹縣竹北市中正東路217號,新竹縣,竹北市,121.01473099999998,24.8350171,竹北中正東加盟門市,加盟店
新竹縣竹北市中正東路517號,新竹縣,竹北市,121.00546839999993,24.8385257,竹北中正東二加盟門市,加盟店
新竹縣竹北市三民路347號,新竹縣,竹北市,121.01091759999997,24.8336482,竹北三民加盟門市,加盟店
新竹縣竹北市自強南路160號1樓,新竹縣,竹北市,121.02485189999993,24.8161322,竹北自強直營門市,直營店
新竹縣竹北市中正西路112號,新竹縣,竹北市,121.0019767,24.8403482,竹北中正西直營門市,直營店
新竹縣竹北市光明六路121號,新竹縣,竹北市,121.00784629999998,24.8279148,竹北光明直營門市,直營店
新竹縣湖口鄉孝勢村民族街86號,新竹縣,湖口鄉,121.04510800000003,24.9019949,新竹湖口加盟門市,加盟店
新竹縣湖口鄉達生路93號1樓,新竹縣,湖口鄉,121.04813000000001,24.9022435,湖口達生加盟門市,加盟店
新竹縣新豐鄉松林村新興路167之3號,新竹縣,新豐鄉,120.99165019999998,24.8644923,新竹新豐加盟門市,加盟店
新竹縣新豐鄉新興路241號,新竹縣,新豐鄉,120.99674900000002,24.8701727,新豐站前直營門市,直營店
新竹縣新埔鎮中正路310號,新竹縣,新埔鎮,121.08054700000002,24.827659,新竹新埔加盟門市,加盟店
新竹縣竹東鎮長春路二段7號,新竹縣,竹東鎮,121.08891859999994,24.7372379,竹東長春加盟門市,加盟店
新竹縣竹東鎮長春路二段7號,新竹縣,竹東鎮,121.08893339999997,24.7372484,竹東長春加盟門市,加盟店
新竹縣竹東鎮東寧路三段85號,新竹縣,竹東鎮,121.08660680000003,24.7385723,竹東東寧加盟門市,加盟店
新竹縣竹東鎮長春路三段194號,新竹縣,竹東鎮,121.08327209999993,24.7441071,新竹竹東直營門市,直營店
苗栗縣後龍鎮大庄里中山路100號,苗栗縣,後龍鎮,120.79068699999993,24.614402,後龍中山加盟門市,加盟店
新竹縣關西鎮西安里正義路69號1樓,新竹縣,關西鎮,121.17603659999997,24.79367,新竹關西加盟門市,加盟店
苗栗縣竹南鎮照南里光復路223號1樓,苗栗縣,竹南鎮,120.87925410000003,24.6893763,竹南光復加盟門市,加盟店
苗栗縣竹南鎮博愛街135號,苗栗縣,竹南鎮,120.87523899999997,24.686656,竹南博愛加盟門市,加盟店
苗栗縣竹南鎮營盤里延平路169號,苗栗縣,竹南鎮,120.87387469999999,24.6907034,竹南延平加盟門市,加盟店
苗栗縣竹南鎮博愛街71號,苗栗縣,竹南鎮,120.87709330000007,24.6867014,苗栗竹南直營門市,直營店
苗栗縣通霄鎮中正路63號,苗栗縣,通霄鎮,120.68036499999994,24.4902375,苗栗通霄加盟門市,加盟店
苗栗縣頭份鎮中華路890號,苗栗縣,頭份鎮,120.90561230000003,24.683087,頭份中正加盟門市,加盟店
苗栗縣頭份鎮中正路167號,苗栗縣,頭份鎮,120.91017599999998,24.686929,頭份中正二加盟門市,加盟店
苗栗縣頭份鎮中華路1003號,苗栗縣,頭份鎮,120.90721000000008,24.685945,頭份中華加盟門市,加盟店
苗栗縣頭份鎮中正路120號,苗栗縣,頭份鎮,120.90835879999997,24.6852352,苗栗頭份直營門市,直營店
苗栗縣頭份鎮信東路171號,苗栗縣,頭份鎮,120.90890739999998,24.6901062,頭份信東二加盟門市,加盟店
苗栗縣苑裡鎮中山路167號,苗栗縣,苑裡鎮,120.67550170000004,24.4815395,苑裡中山加盟門市,加盟店
苗栗縣苑裡鎮和平路185號,苗栗縣,苑裡鎮,120.65193539999996,24.4420196,苗栗苑裡加盟門市,加盟店
苗栗縣公館鄉大同路232號,苗栗縣,公館鄉,120.82753819999994,24.5036285,苗栗公館加盟門市,加盟店
台中市中區台灣大道1段85號,台中市,中區,120.72210100000007,24.252883,台中中正加盟門市,加盟店
台中市中區台灣大道一段555號,台中市,中區,120.67658030000007,24.1449,台中中華直營門市,直營店
苗栗縣苗栗市中正路1043號,苗栗縣,苗栗市,120.81618550000007,24.5486388,南苗中正直營門市,直營店
苗栗縣苗栗市中正路505號,苗栗縣,苗栗市,120.82138740000005,24.5588159,苗栗中正直營門市,直營店
苗栗縣苗栗市建功里府前路149號,苗栗縣,苗栗市,120.81836499999997,24.560294,苗栗府前加盟門市,加盟店
苗栗縣苗栗市中正路529號,苗栗縣,苗栗市,120.82110349999994,24.5582925,苗栗中正加盟門市,加盟店
台中市東區精武東路152號,台中市,東區,120.70901609999999,24.149034,太平精武加盟門市,加盟店
台中市東區復興路四段152號1-3F,台中市,東區,120.68676299999993,24.135874,台中新時代直營門市,直營店
台中市東區十甲路377號,台中市,東區,120.70727050000005,24.1444554,台中十甲直營門市,直營店
台中市北區賴厝里永興街333之1號 ,台中市,北區,120.68244400000003,24.166775,台中永興加盟門市,加盟店
台中市北區西屯路一段409號,台中市,北區,120.66422710000006,24.1617766,台中忠明加盟門市,加盟店
台中市北區進化北路345號,台中市,北區,120.68053609999993,24.1630868,進化學士直營門市,直營店
台中市北區中清路一段872號,台中市,北區,120.67171000000008,24.1732051,台中文心直營門市,直營店
台中市北區太平路34之1號,台中市,北區,120.68432430000007,24.1481586,台中一中直營門市,直營店
台中市北區北平路二段126號,台中市,北區,120.67734619999999,24.1713459,台中北平直營門市,直營店
台中市北區三民路三段116之1號,台中市,北區,120.6843844,24.1500325,台中三民直營門市,直營店
台中市北區漢口路三段196號,台中市,北區,120.67262000000005,24.1667833,漢口大雅直營門市,直營店
台中市北區中清路一段33號,台中市,北區,120.67736179999997,24.1522277,大雅五權直營門市,直營店
台中市西區台灣大道二段186號8樓之一,台中市,西區,120.67008609999993,24.1513769,台中維修站,直營店
台中市西區東興路三段54號,台中市,西區,120.65316770000004,24.1464181,台中東興直營門市,直營店
台中市西區忠明南路119號,台中市,西區,120.657603,24.152436,台中忠明暢貨中心,直營店
台中市西區美村路一段26號,台中市,西區,120.66159399999992,24.154398,台中美村直營門市,直營店
台中市西區美村路一段578號,台中市,西區,120.66159629999993,24.138294,台中美村二直營門市,直營店
台中市西區公益路153號,台中市,西區,120.66436640000006,24.1506965,台中公益直營門市,直營店
台中市北屯區松竹路二段197號,台中市,北屯區,120.69501300000002,24.183057,台中松竹加盟門市,加盟店
台中市北屯區遼寧路一段79號,台中市,北屯區,120.69659720000004,24.1757636,台中遼寧加盟門市,加盟店
台中市北屯區昌平路一段99號,台中市,北屯區,120.69039199999997,24.172917,台中昌平加盟門市,加盟店
台中市北屯區昌平路二段3之4號,台中市,北屯區,120.69046320000007,24.1778682,台中昌平直營門市,直營店
台中市北屯區北屯路198之9號,台中市,北屯區,120.69549499999994,24.166504,台中北屯直營門市,直營店
台中市北屯區崇德路二段170號,台中市,北屯區,120.6857463,24.1729694,台中崇德三直營門市,直營店
台中市北屯區文心路四段934號,台中市,北屯區,120.69439769999997,24.1708625,文心興安直營門市,直營店
台中市北屯區軍功路二段2號,台中市,北屯區,120.71938,24.1760163,台中軍功直營門市,直營店
台中市北屯區中清路二段522號,台中市,北屯區,120.66646209999999,24.1817323,水湳中清直營門市,直營店
 臺中市北屯區中清路二段323號,台中市,北屯區,120.66833710000003,24.1787364,台中中清二加盟門市,加盟店
台中市南區美村南路18號,台中市,南區,120.66697899999997,24.1185417,台中美村南加盟門市,加盟店
台中市南區復興路一段359號,台中市,南區,120.65445729999999,24.1146976,復興愛買直營門市,直營店
台中市南區美村南路120號,台中市,南區,120.66708300000005,24.1150189,南區美村南直營門市,直營店
台中市南區復興路三段256號,台中市,南區,120.67693400000007,24.13163,台中復興直營門市,直營店
台中市南區文心南路745號,台中市,南區,120.65639720000001,24.1137026,台中文心南直營門市,直營店
台中市南區台中路82號,台中市,南區,120.683133,24.1336,台中後站直營門市,直營店
台中市南區建成路1629號,台中市,南區,120.67488100000003,24.126094,台中興大直營門市,直營店
台中市南區復興路二段2-1號,台中市,南區,120.66491300000007,24.126751,復興工學直營門市,直營店
台中市西屯區河南路二段472之1號,台中市,西屯區,120.64304700000002,24.170498,台中河南二加盟門市,加盟店
台中市西屯區福星路349號,台中市,西屯區,120.6451621,24.1808406,逢甲福星直營門市,直營店
台中市西屯區福雅里永福路62號,台中市,西屯區,120.62035029999993,24.1831708,中科永福加盟門市,加盟店
台中市西屯區河南路二段404號1樓,台中市,西屯區,120.64610900000002,24.1730621,台中河南加盟門市,加盟店
台中市西屯區台灣大道三段251號B2,台中市,西屯區,120.64471690000005,24.1648631,台中遠百直營門市,直營店
台中市西屯區西屯路二段282-13號,台中市,西屯區,120.643597,24.176482,西屯文華直營門市,直營店
台中市西屯區福星路613號,台中市,西屯區,120.64685080000004,24.1751104,福星河南直營門市,直營店
台中市西屯區青海路一段71號,台中市,西屯區,120.65463410000007,24.164385,台中青海直營門市,直營店
台中市西屯區何成里大墩路905號,台中市,西屯區,120.65020600000003,24.156894,中港大墩直營門市,直營店
台中市西屯區西屯路三段159號,台中市,西屯區,120.6195209,24.1874536,台中西屯直營門市,直營店
台中市西屯區西屯路三段166之45號,台中市,西屯區,120.61687870000003,24.1887593,西屯中科直營門市,直營店
台中市西屯區漢口路二段298號,台中市,西屯區,120.66446700000006,24.1665295,台中漢口直營門市,直營店
台中市南屯區忠勇路80-26號,台中市,南屯區,120.61658920000002,24.1529888,南屯忠勇加盟門市,加盟店
台中市南屯區大墩路295號,台中市,南屯區,120.64973199999997,24.1439495,台中大墩加盟門市,加盟店
台中市南屯區東興路二段104號,台中市,南屯區,120.65321530000006,24.1390694,南屯東興直營門市,直營店
台中市南屯區黎明路二段442號B1及1樓,台中市,南屯區,120.635355,24.151941,黎明公益直營門市,直營店
台中市南屯區黎明路一段1181號,台中市,南屯區,120.6378909,24.141533,台中黎明直營門市,直營店
"台中市南屯區大墩路502,504號",台中市,南屯區,120.65013999999996,24.148523,台中大墩直營門市,直營店
台中市南屯區向心南路971號,台中市,南屯區,120.64360499999998,24.137288,台中向心南直營門市,直營店
台中市南屯區向上路二段433號,台中市,南屯區,120.63746020000008,24.1469198,向上黎明直營門市,直營店
"台中市南屯區永春南路72,76號",台中市,南屯區,120.61115999999993,24.138677,台中嶺東直營門市,直營店
台中市太平區中山路三段146號,台中市,太平區,120.71814900000004,24.149064,太平中山加盟門市,加盟店
台中市太平區太平路200號,台中市,太平區,120.712942,24.12593,台中小鎮加盟門市,加盟店
台中市太平區太平路608號,台中市,太平區,120.712537,24.126138,太平太平加盟門市,加盟店
台中市太平區樹孝路276號1樓,台中市,太平區,120.71855299999993,24.153787,太平樹孝加盟門市,加盟店
台中市太平區中山路三段146號,台中市,太平區,120.71814900000004,24.149064,太平中山加盟門市,加盟店
台中市太平區中興里新平路一段221號,台中市,太平區,120.71613100000002,24.1333619,太平東平加盟門市,加盟店
台中市太平區中興路111之1號,台中市,太平區,120.71582000000001,24.1271309,太平中興直營門市,直營店
台中市太平區中山路四段209號,台中市,太平區,120.70152640000003,24.1479311,太平中山直營門市,直營店
台中市太平區中山路一段302號,台中市,太平區,120.73363500000005,24.142891,太平勤益直營門市,直營店
台中市太平區樹孝路39之10號,台中市,太平區,120.7162376,24.1503417,太平樹孝加盟門市,加盟店
台中市大里區中興路一段287號,台中市,大里區,120.6912284,24.0912745,大里塗城加盟門市,加盟店
台中市大里區中興路二段386之8號,台中市,大里區,120.68982849999998,24.1066064,大里中興加盟門市,加盟店
台中市大里區東榮路364號,台中市,大里區,120.68371400000001,24.1102594,大里東榮加盟門市,加盟店
台中市大里區立仁路73號,台中市,大里區,120.70349839999994,24.1079977,大里立仁加盟門市,加盟店
台中市大里區中興路二段540號,台中市,大里區,120.69000499999993,24.1132809,大里中興直營門市,直營店
台中市大里區塗城路662號,台中市,大里區,120.69915850000007,24.0894475,大里塗城直營門市,直營店
台中市大里區大明路297號,台中市,大里區,120.68080469999995,24.1150776,大里大明直營門市,直營店
"台中市大里區中興路二段336,338號",台中市,大里區,120.68923010000003,24.1047635,大里中興二直營門市,直營店
台中市大里區成功二路49號,台中市,大里區,120.70354700000007,24.0936218,大里成功加盟門市,加盟店
台中市霧峰區中正路966號,台中市,霧峰區,120.69890599999997,24.0659768,霧峰中正加盟門市,加盟店
台中市霧峰區樹仁路39號,台中市,霧峰區,120.69702630000006,24.0638496,霧峰樹仁直營門市,直營店
台中市后里區后里村甲后路366號,台中市,后里區,120.72237050000001,24.3088765,后里三豐加盟門市,加盟店
台中市后里區甲后路272號1樓,台中市,后里區,120.72466180000004,24.3090162,后里甲后加盟門市,加盟店
台中市烏日區中山路一段602號,台中市,烏日區,120.63411569999994,24.1063994,烏日中山二加盟門市,加盟店
台中市烏日區中山路二段169號1樓,台中市,烏日區,120.6263725,24.1059486,烏日光日加盟門市,加盟店
台中市烏日區中山路一段377號,台中市,烏日區,120.63266229999999,24.1056521,烏日中山加盟門市,加盟店
台中市豐原區中山路321號,台中市,豐原區,120.71497999999997,24.24845,豐原中山加盟門市,加盟店
台中市豐原區社皮里中正路612號,台中市,豐原區,120.70620710000003,24.2501693,豐原成功加盟門市,加盟店
台中市豐原區南陽里圓環東路345號,台中市,豐原區,120.72399599999994,24.2452445,豐原環東加盟門市,加盟店
台中市豐原區圓環東路678號,台中市,豐原區,120.72867500000007,24.250794,豐原向陽加盟門市,加盟店
台中市豐原區中山路143-5號,台中市,豐原區,120.71133179999993,24.2397467,豐原中山二直營門市,直營店
台中市豐原區中正路207號,台中市,豐原區,120.71815400000003,24.251669,豐原中正直營門市,直營店
台中市豐原區中正路452號,台中市,豐原區,120.71018300000003,24.250877,豐原中正二直營門市,直營店
台中市豐原區三民路33號,台中市,豐原區,120.72170299999993,24.253578,豐原站前直營門市,直營店
台中市東勢區豐勢路340號,台中市,東勢區,120.82991500000003,24.253652,台中東勢加盟門市,加盟店
台中市東勢區豐勢路429號,台中市,東勢區,120.829069,24.2555242,東勢豐勢直營門市,直營店
台中市新社區興安路18-38號,台中市,新社區,120.80911560000004,24.242003,台中新社加盟門市,加盟店
台中市潭子區勝利路282號1樓,台中市,潭子區,120.70058919999997,24.2127455,潭子勝利加盟門市,加盟店
台中市潭子區中山路二段504號,台中市,潭子區,120.70562919999998,24.2169998,潭子中山直營門市,直營店
台中市潭子區中山路一段19之6號,台中市,潭子區,120.70244869999999,24.1908539,潭子頭家厝直營門市,直營店
台中市潭子區潭興路三段22號,台中市,潭子區,120.70447730000001,24.211599,潭子潭興直營門市,直營店
台中市大雅區上雅村民生路一段380號,台中市,大雅區,120.65435409999998,24.2293889,大雅民生加盟門市,加盟店
台中市大雅區民生路一段3號1樓,台中市,大雅區,120.64968850000002,24.2275062,大雅中清加盟門市,加盟店
台中市大雅區中清路三段1130號,台中市,大雅區,120.64668430000006,24.2230005,大雅中清南加盟門市,加盟店
台中市大雅區民生路一段159號,台中市,大雅區,120.64961489999996,24.2271757,台中大雅直營門市,直營店
台中市大肚區大肚村沙田路二段585號,台中市,大肚區,120.54593739999996,24.1498715,台中大肚加盟門市,加盟店
台中市龍井區新東村新興路40-10號,台中市,龍井區,120.51639490000002,24.2102428,龍井新興加盟門市,加盟店
台中市龍井區新興路3之3號,台中市,龍井區,120.58890629999996,24.1806241,台中東海直營門市,直營店
台中市龍井區遊園南路207號,台中市,龍井區,120.5840121,24.181445,龍井遊園南直營門市,直營店
台中市梧棲區文化路二段147號,台中市,梧棲區,120.53059600000006,24.255547,台中梧棲加盟門市,加盟店
台中市沙鹿區中山路256號,台中市,沙鹿區,120.56064289999995,24.237987,沙鹿中山加盟門市,加盟店
台中市沙鹿區沙田路178號,台中市,沙鹿區,120.55990769999994,24.2372783,沙鹿沙田加盟門市,加盟店
台中市沙鹿區沙田路118號1F,台中市,沙鹿區,120.55911990000004,24.2354319,沙鹿光田直營門市,直營店
台中市沙鹿區中山路413號,台中市,沙鹿區,120.56079569999997,24.2418375,台中沙鹿直營門市,直營店
台中市神岡區民生路12號,台中市,神岡區,120.67529769999999,24.243159,神岡社口加盟門市,加盟店
台中市清水區光復街39-1號,台中市,清水區,120.57640519999995,24.270667,清水中山直營門市,直營店
台中市清水區中山路195號1F,台中市,清水區,120.57458099999997,24.267464,清水中山二直營門市,直營店
台中市外埔區甲后路704號,台中市,外埔區,120.63877530000002,24.3419129,台中外埔加盟門市,加盟店
台中市大甲區庄美里蔣公路308號,台中市,大甲區,120.61732800000004,24.34808,大甲經國加盟門市,加盟店
台中市大甲區中山路999號,台中市,大甲區,120.62754659999996,24.3469556,大甲中山加盟門市,加盟店
台中市大甲區順天路203號,台中市,大甲區,120.62344280000002,24.3458824,大甲順天加盟門市,加盟店
台中市大甲區光明路15號,台中市,大甲區,120.62482090000003,24.3436234,大甲光明直營門市,直營店
南投縣南投市龍泉里民族路 202號1樓,南投縣,南投市,120.68855800000006,23.909419,南投民族加盟門市,加盟店
南投縣南投市三和三路31號,南投縣,南投市,120.68731720000005,23.9050999,南投三和加盟門市,加盟店
南投縣南投市彰南路一段1167號,南投縣,南投市,120.68497079999997,23.9078951,南投彰南直營門市,直營店
南投縣草屯鎮中正路640號,南投縣,草屯鎮,120.68478800000003,23.9790979,南投草屯直營門市,直營店
南投縣草屯鎮太平路二段222號,南投縣,草屯鎮,120.6839721,23.9757766,草屯太平直營門市,直營店
南投縣草屯鎮中正路727號,南投縣,草屯鎮,120.68437700000004,23.9807198,草屯中正加盟門市,加盟店
南投縣草屯鎮中正路862號,南投縣,草屯鎮,120.68622400000004,23.984113,草屯中正二加盟門市,加盟店
嘉義市西區仁愛路347號4F之5,嘉義市,西區,120.44196320000003,23.4748288,嘉義維修站,直營店
嘉義市西區友愛路172號,嘉義市,西區,120.43411549999996,23.4802986,嘉義友愛直營門市,直營店
嘉義市西區興業西路405號,嘉義市,西區,120.43567659999997,23.467392,嘉義興業加盟門市,加盟店
嘉義市西區仁愛路462號,嘉義市,西區,120.4421261,23.4761909,嘉義林森加盟門市,加盟店
嘉義市西區民生北路89號,嘉義市,西區,120.44647540000005,23.476077,嘉義民生北直營門市,直營店
嘉義市西區林森西路290號,嘉義市,西區,120.44580689999998,23.4832817,嘉義林森直營門市,直營店
嘉義市西區垂楊路433號,嘉義市,西區,120.44404600000007,23.4731568,嘉義垂楊直營門市,直營店
南投縣竹山鎮集山路三段848號,南投縣,竹山鎮,120.68590080000001,23.7588386,竹山集山直營門市,直營店
南投縣竹山鎮集山路三段982號,南投縣,竹山鎮,120.68207899999993,23.756481,南投竹山加盟門市,加盟店
南投縣名間鄉中正村南雅街154號1樓,南投縣,名間鄉,120.70213420000005,23.8386691,南投名間加盟門市,加盟店
南投縣埔里鎮南昌街248號,南投縣,埔里鎮,120.9641077,23.9669576,埔里南昌加盟門市,加盟店
南投縣埔里鎮中正路275之1號,南投縣,埔里鎮,120.97034380000002,23.9621678,埔里站前加盟門市,加盟店
南投縣埔里鎮中正路375號,南投縣,埔里鎮,120.96738149999999,23.9650349,埔里中正直營門市,直營店
嘉義市東區吳鳳南路657號,嘉義市,東區,120.45946100000003,23.455027,嘉義中埔加盟門市,加盟店
嘉義市東區民族路390號,嘉義市,東區,120.45147650000001,23.4761383,嘉義民族加盟門市,加盟店
嘉義市東區民族路39號,嘉義市,東區,120.46054400000003,23.4769621,嘉義民族直營門市,直營店
嘉義市東區新生路715號,嘉義市,東區,120.45502379999994,23.4953866,嘉義新生直營門市,直營店
嘉義市東區文化路188號,嘉義市,東區,120.44958629999996,23.4801084,嘉義文化直營門市,直營店
南投縣水里鄉民生路326號,南投縣,水里鄉,120.85365100000001,23.8178258,南投水里加盟門市,加盟店
嘉義縣朴子市山通路188號,嘉義縣,朴子市,120.24230269999998,23.4643777,嘉義朴子加盟門市,加盟店
嘉義縣朴子市海通路76號,嘉義縣,朴子市,120.24076509999998,23.4638083,朴子海通直營門市,直營店
嘉義縣大林鎮中正路395號,嘉義縣,大林鎮,120.45318380000003,23.6018477,嘉義大林加盟門市,加盟店
嘉義縣水上鄉中山路二段346號,嘉義縣,水上鄉,120.39796009999998,23.4326309,水上中山加盟門市,加盟店
嘉義縣竹崎鄉和平村田寮96之2號,嘉義縣,竹崎鄉,120.54863920000003,23.5175876,嘉義竹崎加盟門市,加盟店
嘉義縣太保市中山路一段760號,嘉義縣,太保市,120.37716390000003,23.4986846,嘉義太保加盟門市,加盟店
嘉義縣義竹鄉六桂村172之3號,嘉義縣,義竹鄉,120.24406090000002,23.3324379,嘉義義竹加盟門市,加盟店
嘉義縣民雄鄉興南村建國路三段185號,嘉義縣,民雄鄉,120.43920249999996,23.5240902,嘉義頭橋加盟門市,加盟店
嘉義縣民雄鄉文化路60之8號,嘉義縣,民雄鄉,120.44993499999998,23.4767885,民雄文化直營門市,直營店
嘉義縣民雄鄉建國路一段119號,嘉義縣,民雄鄉,120.43252749999999,23.5581351,嘉義民雄加盟門市,加盟店
嘉義縣新港鄉宮前村中山路118號,嘉義縣,新港鄉,120.34727729999997,23.5531477,嘉義新港加盟門市,加盟店
雲林縣麥寮鄉光復南路348號,雲林縣,麥寮鄉,120.25598880000007,23.7459132,雲林麥寮加盟門市,加盟店
嘉義縣布袋鎮興中里上海路197號附1,嘉義縣,布袋鎮,120.16159859999993,23.3790992,嘉義布袋加盟門市,加盟店
雲林縣西螺鎮建興路174號,雲林縣,西螺鎮,120.45935800000007,23.798235,西螺建興加盟門市,加盟店
雲林縣西螺鎮中山路106號,雲林縣,西螺鎮,120.46073630000001,23.8001737,西螺中山直營門市,直營店
雲林縣虎尾鎮光復路313號,雲林縣,虎尾鎮,120.44012020000002,23.709762,虎尾光復加盟門市,加盟店
雲林縣虎尾鎮中正路309號,雲林縣,虎尾鎮,120.42989190000003,23.7046628,虎尾中正加盟門市,加盟店
雲林縣虎尾鎮光復路386號,雲林縣,虎尾鎮,120.43653470000004,23.7102662,虎尾圓環直營門市,直營店
雲林縣虎尾鎮林森路一段486號,雲林縣,虎尾鎮,120.43410040000003,23.7095634,虎尾林森直營門市,直營店
雲林縣北港鎮大同路193號,雲林縣,北港鎮,120.30080720000001,23.5718295,北港大同加盟門市,加盟店
雲林縣北港鎮文化路55之1號,雲林縣,北港鎮,120.30131299999994,23.5689837,北港文化直營門市,直營店
雲林縣斗南鎮南昌里延平路2段417號,雲林縣,斗南鎮,120.47648430000004,23.6736695,雲林斗南加盟門市,加盟店
雲林縣斗南鎮中山路120號,雲林縣,斗南鎮,120.47879820000003,23.6763405,斗南中山直營門市,直營店
雲林縣斗六市中山路280之1號,雲林縣,斗六市,120.53848670000002,23.7025394,斗六中山加盟門市,加盟店
雲林縣斗六市鎮北路28號,雲林縣,斗六市,120.54330670000002,23.712158,斗六鎮北加盟門市,加盟店
雲林縣斗六市文化路106號,雲林縣,斗六市,120.54801500000008,23.710842,斗六文化加盟門市,加盟店
雲林縣斗六市雲林路一段112號,雲林縣,斗六市,120.53727000000003,23.707344,雲林斗六加盟門市,加盟店
雲林縣斗六市民生南路185號,雲林縣,斗六市,120.53705109999999,23.7021151,斗六民生南直營門市,直營店
雲林縣斗六市民生路121號,雲林縣,斗六市,120.5388878,23.7099027,斗六民生直營門市,直營店
雲林縣莿桐鄉中山路87號,雲林縣,莿桐鄉,120.49969959999999,23.7567225,雲林莿桐加盟門市,加盟店
台南市北區開元路408號1樓,台南市,北區,120.22540549999997,23.0104885,台南開元加盟門市,加盟店
台南市北區公園路898之3號,台南市,北區,120.21307249999995,23.0144577,台南公園直營門市,直營店
台南市北區文賢路512號,台南市,北區,120.19367209999996,23.0069141,台南文賢直營門市,直營店
台南市北區西門路四段34號,台南市,北區,120.20637569999997,23.0065926,台南小北直營門市,直營店
台南市安平區華平路489號,台南市,安平區,120.17541570000003,22.993307,台南華平加盟門市,加盟店
台南市永康區大灣路788號,台南市,永康區,120.258914,23.000556,永康大灣加盟門市,加盟店
台南市永康區中山南路1026號,台南市,永康區,120.25525330000005,23.0251496,永康農會加盟門市,加盟店
台南市永康區中華路659-4號,台南市,永康區,120.22924720000003,23.0155775,永康大橋加盟門市,加盟店
台南市永康區中山北路48號1樓,台南市,永康區,120.25845800000002,23.02603,永康中北加盟門市,加盟店
台南市永康區中華路152號,台南市,永康區,120.23548000000005,23.0034341,永康中華直營門市,直營店
台南市永康區中華路227號,台南市,永康區,120.23517300000003,23.0053091,台南永康加盟門市,加盟店
台南市永康區中正北路86號,台南市,永康區,120.24068179999995,23.0413485,台南鹽行加盟門市,加盟店
台南市永康區大灣路346號,台南市,永康區,120.26684399999999,23.0060861,永康大灣二加盟門市,加盟店
台南市永康區大灣路955號,台南市,永康區,120.25268200000005,22.9987334,台南崑山直營門市,直營店
台南市永康區中山南路28號,台南市,永康區,120.22753639999996,23.0120546,台南中山南直營門市,直營店
台南市永康區中山南路463號,台南市,永康區,120.24813900000004,23.021745,永康中山直營門市,直營店
台南市中西區府前路二段191號,台南市,中西區,120.19243200000005,22.991394,台南府前加盟門市,加盟店
台南市中西區永華路一段184號,台南市,中西區,120.19190000000003,22.988353,台南永華加盟門市,加盟店
台南市中西區民族路三段290號,台南市,中西區,120.19220659999996,23.000283,台南民族一加盟門市,加盟店
台南市中西區中山路100號,台南市,中西區,120.20842360000006,22.9945603,台南民族直營門市,直營店
台南市中西區西門路一段719號,台南市,中西區,120.19725010000002,22.9887917,台南西門直營門市,直營店
台南市中西區民生路一段207號,台南市,中西區,120.19947720000005,22.9942253,台南民生直營門市,直營店
台南市中西區民族路三段32號,台南市,中西區,120.19889369999999,22.9979381,台南永樂直營門市,直營店
台南市南區西門路一段639號,台南市,南區,120.19718799999998,22.985963,台南西門二加盟門市,加盟店
台南市南區金華路一段442號,台南市,南區,120.1907496,22.9720714,台南鹽埕加盟門市,加盟店
台南市南區金華路一段204號,台南市,南區,120.19013259999997,22.9663829,台南金華一加盟門市,加盟店
台南市南區金華路二段134號,台南市,南區,120.19158300000004,22.97889,台南金華直營門市,直營店
台南市南區金華路二段223號,台南市,南區,120.19138909999992,22.9827674,台南金華二直營門市,直營店
台南市歸仁區中山路二段265號,台南市,歸仁區,120.28809109999997,22.9673248,台南歸仁加盟門市,加盟店
台南市歸仁區中山路一段589號,台南市,歸仁區,120.29584520000003,22.966489,台南歸仁二加盟門市,加盟店
台南市東區中華東路一段269號,台南市,東區,120.23383899999999,22.9889266,台南裕農暢貨中心,直營店
台南市東區東寧路385號1樓,台南市,東區,120.22895619999997,22.9898394,台南東寧二加盟門市,加盟店
台南市東區仁和路108-1號,台南市,東區,120.23476589999996,22.9687241,台南仁和加盟門市,加盟店
台南市東區中華東路2段151號,台南市,東區,120.23185149999995,22.9840787,台南華東加盟門市,加盟店
"台南市東區中華東路三段18,20號",台南市,東區,120.2288026,22.9808026,台南中華直營門市,直營店
台南市東區大同路二段95號,台南市,東區,120.21356289999994,22.9787542,台南大同直營門市,直營店
台南市東區東門路二段127號,台南市,東區,120.22205869999993,22.9858282,台南東門直營門市,直營店
台南市東區崇學路169號,台南市,東區,120.22333329999992,22.9801755,台南崇學直營門市,直營店
台南市東區東寧路226號,台南市,東區,120.22493450000002,22.9907961,台南東寧直營門市,直營店
台南市東區崇德路557號,台南市,東區,120.22759199999996,22.973232,台南崇德直營門市,直營店
台南市安南區海佃路一段286號,台南市,安南區,120.1912026,23.026658,台南海佃加盟門市,加盟店
台南市安南區安中路三段333號,台南市,安南區,120.1766814,23.0485558,台南安中加盟門市,加盟店
台南市安南區安中路三段333號,台南市,安南區,120.1766814,23.0485558,台南安中加盟門市,加盟店
台南市安南區安和路一段308號,台南市,安南區,120.21260800000005,23.03243,台南安和直營門市,直營店
台南市安南區海佃路一段128號,台南市,安南區,120.1919676,23.0231593,台南海佃直營門市,直營店
台南市安南區安和路五段128號,台南市,安南區,120.21837449999998,23.0655759,台南安和二直營門市,直營店
台南市安南區安中路一段810號,台南市,安南區,120.19481810000002,23.0435626,台南安中二直營門市,直營店
台南市西港區中山路331號,台南市,西港區,120.2030234,23.1226034,台南西港加盟門市,加盟店
台南市仁德區中正路二段465號,台南市,仁德區,120.25244050000003,22.9550528,仁德中正加盟門市,加盟店
台南市仁德區中山路451號,台南市,仁德區,120.25598850000006,22.9710754,台南仁德直營門市,直營店
台南市新化區中山路533號,台南市,新化區,120.30204909999998,23.0359435,台南新化二直營門市,直營店
台南市新化區中山路233號,台南市,新化區,120.308627,23.035917,台南新化加盟門市,加盟店
台南市麻豆區興中路3號1樓,台南市,麻豆區,120.24868670000001,23.183768,台南麻豆加盟門市,加盟店
台南市麻豆區興中路169之4號,台南市,麻豆區,120.253108,23.183828,麻豆興中加盟門市,加盟店
台南市麻豆區中山路114號,台南市,麻豆區,120.24453130000006,23.1838388,台南麻豆中山加盟門市,加盟店
台南市學甲區中正路173號,台南市,學甲區,120.17963199999997,23.2316737,學甲中正加盟門市,加盟店
台南市關廟區中山路二段142號1樓,台南市,關廟區,120.32599460000006,22.9602572,關廟中山加盟門市,加盟店
台南市新營區中山路183號,台南市,新營區,120.315384,23.303332,新營中山直營門市,直營店
台南市新營區民權路30-4號,台南市,新營區,120.31316800000002,23.303963,新營民權直營門市,直營店
台南市新營區三民路89號,台南市,新營區,120.31413320000001,23.3068673,台南新營加盟門市,加盟店
台南市佳里區延平路282號,台南市,佳里區,120.178541,23.160353,佳里延平加盟門市,加盟店
台南市佳里區光復路215號,台南市,佳里區,120.17462560000001,23.1605805,佳里光復加盟門市,加盟店
台南市佳里鎮延平路46-48號,台南市,佳里區,120.17955989999996,23.1545901,台南佳里直營門市,直營店
高雄市前金區中華三路168號,高雄市,前金區,120.29518239999993,22.6316472,前金中華加盟門市,加盟店
台南市白河區中山路32之2號,台南市,白河區,120.41471350000006,23.3482914,白河康樂加盟門市,加盟店
台南市新市區中正路321-3號,台南市,新市區,120.29409450000003,23.0797212,新市中正加盟門市,加盟店
台南市新市區仁愛街298號,台南市,新市區,120.29376360000003,23.0769746,台南新市加盟門市,加盟店
台南市鹽水區水正里中正路19號1樓,台南市,鹽水區,120.26775840000005,23.3202252,台南鹽水加盟門市,加盟店
台南市善化區中山路216之2號,台南市,善化區,120.29875979999997,23.1324934,台南善化二加盟門市,加盟店
台南市善化區中正路462號,台南市,善化區,120.29398659999993,23.1311169,善化中正加盟門市,加盟店
台南市善化區中山路127號,台南市,善化區,120.30196739999997,23.1328752,善化站前加盟門市,加盟店
高雄市鹽埕區五福四路206號,高雄市,鹽埕區,120.28271999999993,22.624337,高雄鹽埕直營門市,直營店
800高雄市新興區新田路143號,高雄市,新興區,120.30356419999998,22.6221315,高雄新崛江(新崛江暢貨中心),直營店
高雄市新興區五福二路262號(大統五福百貨),高雄市,新興區,120.3014068,22.6235473,高雄五福暢貨中心,直營店
高雄市新興區林森一路196號,高雄市,新興區,120.30482810000001,22.6321824,高雄林森直營門市,直營店
高雄市苓雅區成功一路199號1樓,高雄市,苓雅區,120.29627319999997,22.6173189,高雄成功直營門市,直營店
高雄市苓雅區廣州一街163號,高雄市,苓雅區,120.31582660000004,22.6272741,高雄廣州直營門市,直營店
高雄市苓雅區四維三路68號,高雄市,苓雅區,120.31057599999997,22.619892,高雄四維直營門市,直營店
高雄市苓雅區武廟路128號,高雄市,苓雅區,120.32864900000004,22.631218,高雄武廟直營門市,直營店
高雄市苓雅區光華一路148之24號,高雄市,苓雅區,120.31634800000006,22.622526,高雄光華直營門市,直營店
高雄市苓雅區三多二路78號,高雄市,苓雅區,120.32717200000002,22.6215091,高雄三信直營門市,直營店
高雄市鼓山區裕誠路1083號,高雄市,鼓山區,120.2998963,22.6657443,高雄瑞豐直營門市,直營店
高雄市鼓山區臨海二路39號,高雄市,鼓山區,120.27212800000007,22.622634,高雄臨海加盟門市,加盟店
高雄市鼓山區九如四路1165號,高雄市,鼓山區,120.27989500000001,22.6603167,鼓山內惟加盟門市,加盟店
高雄市鼓山區華榮路307號,高雄市,鼓山區,120.29632459999993,22.6670359,高雄華榮直營門市,直營店
高雄市鼓山區中華一路279號,高雄市,鼓山區,120.29302600000005,22.660918,高雄明誠直營門市,直營店
高雄市旗津區海岸路4號,高雄市,旗津區,120.26953800000001,22.613878,高雄旗津加盟門市,加盟店
高雄市前鎮區草衙二路436號,高雄市,前鎮區,120.32280390000005,22.5799369,高雄草衙二,直營店
高雄市前鎮區瑞隆路342號,高雄市,前鎮區,120.33173450000004,22.6056722,前鎮瑞隆加盟門市,加盟店
高雄市前鎮區一心二路40號,高雄市,前鎮區,120.31160799999998,22.61106,高雄一心加盟門市,加盟店
高雄市前鎮區中山四路100號2A-08,高雄市,前鎮區,120.32852460000004,22.5823718,高雄大魯閣加盟門市,加盟店
高雄市前鎮區瑞隆路182號,高雄市,前鎮區,120.33486770000002,22.605815,前鎮瑞隆二加盟門市,加盟店
高雄市前鎮區三多三路171號,高雄市,前鎮區,120.30870200000004,22.6152,高雄三多直營門市,直營店
高雄市前鎮區瑞隆路511號,高雄市,前鎮區,120.32811400000003,22.6051315,高雄瑞隆直營門市,直營店
"高雄市前鎮區草衙二路307,309號",高雄市,前鎮區,120.32371039999998,22.5769268,高雄草衙直營門市,直營店
高雄市小港區康莊路207號,高雄市,小港區,120.35135149999996,22.5680863,高雄小港二加盟門市,加盟店
高雄市小港區孔鳳路515號,高雄市,小港區,120.35853599999996,22.582686,小港桂林加盟門市,加盟店
高雄市小港區孔鳳路515號,高雄市,小港區,120.35853599999996,22.582686,小港桂林加盟門市,加盟店
高雄市小港區漢民路700號1樓,高雄市,小港區,120.36183099999994,22.56746,小港漢民二加盟門市,加盟店
高雄市小港區漢民路281號,高雄市,小港區,120.35360100000003,22.567024,小港漢民直營門市,直營店
高雄市小港區漢民路361號,高雄市,小港區,120.356225,22.567,高雄小港加盟門市,加盟店
高雄市仁武區仁雄路6之5號,高雄市,仁武區,120.35409240000001,22.6810189,仁武八卦寮加盟門市,加盟店
高雄市仁武區仁雄路129號,高雄市,仁武區,120.33982709999998,22.676447,仁武仁雄加盟門市,加盟店
高雄市仁武區中正路51號,高雄市,仁武區,120.34655909999992,22.7012511,仁武中正加盟門市,加盟店
高雄市楠梓區德賢路477號,高雄市,楠梓區,120.3023177,22.7260246,楠梓德賢加盟門市,加盟店
高雄市楠梓區後昌新路170號,高雄市,楠梓區,120.29132989999994,22.7211283,高雄後昌新直營門市,直營店
高雄市楠梓區後昌路107號,高雄市,楠梓區,120.3108082,22.7189356,楠梓後昌直營門市,直營店
高雄市楠梓區軍校路732.734號,高雄市,楠梓區,120.29314399999998,22.708387,楠梓軍校直營門市,直營店
高雄市楠梓區楠梓新路237號,高雄市,楠梓區,120.3256242,22.7279578,高雄楠梓新直營門市,直營店
高雄市楠梓區楠梓路10號,高雄市,楠梓區,120.32997060000002,22.728231,高雄楠梓二加盟門市,加盟店
高雄市岡山區岡山路298號,高雄市,岡山區,120.29602210000007,22.7933484,岡山岡山加盟門市,加盟店
高雄市岡山區岡山路384號,高雄市,岡山區,120.295883,22.7947033,岡山中街加盟門市,加盟店
高雄市岡山區壽天路65號,高雄市,岡山區,120.29124350000006,22.794642,岡山壽天加盟門市,加盟店
高雄市岡山區柳橋東路26號,高雄市,岡山區,120.2954178,22.7911281,岡山柳橋東直營門市,直營店
高雄市岡山區仁壽路25號    ,高雄市,岡山區,120.28977009999994,22.7929435,岡山仁壽直營門市,直營店
高雄市大社區中山路445之1號,高雄市,大社區,120.3534922,22.73116,大社中山加盟門市,加盟店
高雄市大社區中山路247號,高雄市,大社區,120.34838820000004,22.7318643,高雄大社加盟門市,加盟店
高雄市路竹區中山路650號,高雄市,路竹區,120.26053320000005,22.8577413,高雄路竹加盟門市,加盟店
高雄市路竹區大社路28號,高雄市,路竹區,120.26144499999998,22.8623839,高雄路竹直營門市,直營店
高雄市左營區華夏路728號,高雄市,左營區,120.30268000000001,22.678311,高雄華夏加盟門市,加盟店
高雄市左營區自由二路210號,高雄市,左營區,120.30845799999997,22.66346,高雄自由二直營門市,直營店
高雄市左營區後昌路679號,高雄市,左營區,120.29764460000001,22.7086586,高雄右昌加盟門市,加盟店
高雄市左營區左營大路245號,高雄市,左營區,120.29032239999992,22.6860851,高雄左營大加盟門市,加盟店
高雄市左營區榮總路5號,高雄市,左營區,120.32170150000002,22.6780661,高雄榮總直營門市,直營店
高雄市左營區自由三路170號1樓,高雄市,左營區,120.31118400000003,22.671386,左營自由加盟門市,加盟店
高雄市左營區博愛三路257號,高雄市,左營區,120.30514790000007,22.67471,高雄博愛直營門市,直營店
高雄市左營區自由二路165號,高雄市,左營區,120.30869570000004,22.6603902,高雄自由直營門市,直營店
高雄市左營區華夏路1161號,高雄市,左營區,120.30944699999998,22.684688,左營華夏直營門市,直營店
高雄市燕巢區中民路665號,高雄市,燕巢區,120.35893980000003,22.7931316,燕巢中民加盟門市,加盟店
高雄市林園區東林西路66號,高雄市,林園區,120.39410470000007,22.504193,高雄林園二直營門市,直營店
高雄市林園區東林西路178號,高雄市,林園區,120.39106319999996,22.5031557,林園東林西加盟門市,加盟店
高雄市林園區林園北路312號,高雄市,林園區,120.39483040000005,22.5106728,高雄林園加盟門市,加盟店
高雄市大寮區大寮路612號,高雄市,大寮區,120.4132932,22.5919383,高雄大寮直營門市,直營店
高雄市大寮區鳳屏一路386號,高雄市,大寮區,120.39450629999999,22.6375189,大寮中庄加盟門市,加盟店
高雄市大寮區鳳林四路170之9號,高雄市,大寮區,120.3851492,22.6172415,大寮鳳林直營門市,直營店
高雄市大寮區鳳林三路699號,高雄市,大寮區,120.39305739999998,22.6104352,大寮鳳林二加盟門市,加盟店
高雄市梓官區中崙路301號,高雄市,梓官區,120.26892840000005,22.7610187,高雄梓官加盟門市,加盟店
高雄市梓官區中正路327號,高雄市,梓官區,120.25452740000003,22.731042,梓官中正加盟門市,加盟店
高雄市阿蓮區忠孝路199號,高雄市,阿蓮區,120.32937979999997,22.8789312,高雄阿蓮加盟門市,加盟店
高雄市鳳山區五甲三路148號,高雄市,鳳山區,120.32536099999993,22.591307,高雄五甲加盟門市,加盟店
高雄市鳳山區文鳳路2號,高雄市,鳳山區,120.35119609999992,22.6421132,鳳山青年加盟門市,加盟店
高雄市鳳山區五甲一路65號,高雄市,鳳山區,120.35728689999996,22.6210682,鳳山鳳西加盟門市,加盟店
高雄市鳳山區中山西路10號,高雄市,鳳山區,120.35509300000001,22.626338,鳳山中山西加盟門市,加盟店
高雄市鳳山區中山東路86之7號,高雄市,鳳山區,120.37219800000003,22.624532,鳳山中山東加盟門市,加盟店
高雄市鳳山區南京路152號,高雄市,鳳山區,120.34562879999999,22.6101565,鳳山南京加盟門市,加盟店
高雄市鳳山區武慶二路106號,高雄市,鳳山區,120.33282859999997,22.6124913,鳳山武慶加盟門市,加盟店
高雄市鳳山區五甲二路596號,高雄市,鳳山區,120.33070399999997,22.5951903,高雄五甲二加盟門市,加盟店
高雄市鳳山區中山西路369號,高雄市,鳳山區,120.34526519999997,22.6280434,鳳山中山西直營門市,直營店
高雄市鳳山區大明路100號,高雄市,鳳山區,120.34177269999998,22.6086506,鳳山大明加盟門市,加盟店
高雄市鳳山區青年路二段526號,高雄市,鳳山區,120.34809110000003,22.6467612,鳳山青年直營門市,直營店
高雄市鳳山區五甲二路700號,高雄市,鳳山區,120.32997590000002,22.5945692,鳳山五甲二直營門市,直營店
高雄市鳳山區光遠路116號,高雄市,鳳山區,120.36539300000004,22.624503,鳳山光遠直營門市,直營店
高雄市鳳山區經武路272號,高雄市,鳳山區,120.36460090000003,22.6382955,鳳山經武直營門市,直營店
"高雄市鳳山區五甲二路316,318號",高雄市,鳳山區,120.33818240000005,22.5999453,鳳山五甲直營門市,直營店
高雄市鳳山區南華路155號,高雄市,鳳山區,120.33775220000007,22.6031137,鳳山南華直營門市,直營店
高雄市鳳山區中山路139號,高雄市,鳳山區,120.35852139999997,22.6223466,鳳山中山直營門市,直營店
高雄市橋頭區成功南路41號,高雄市,橋頭區,120.31139840000003,22.7550059,高雄橋頭加盟門市,加盟店
高雄市湖內區保生路157號1F,高雄市,湖內區,120.22288200000003,22.9069973,湖內保生加盟門市,加盟店
高雄市鳥松區學堂路153號1樓,高雄市,鳥松區,120.38976869999999,22.6581581,鳥松學堂加盟門市,加盟店
高雄市鳥松區大仁南路2號,高雄市,鳥松區,120.36246900000003,22.662589,鳥松大仁南加盟門市,加盟店
高雄市三民區建國二路36號14樓,高雄市,三民區,120.31199670000001,22.6375669,高雄維修站,直營店
高雄市三民區博愛一路99號,高雄市,三民區,120.30270199999995,22.643864,高雄博愛加盟門市,加盟店
高雄市三民區建工路595號,高雄市,三民區,120.31983400000001,22.648367,高雄建工二加盟門市,加盟店
高雄市三民區鼎山街295號,高雄市,三民區,120.32206599999995,22.658212,高雄鼎山加盟門市,加盟店
高雄市三民區大昌二路30號,高雄市,三民區,120.33233999999993,22.6416269,三民大昌加盟門市,加盟店
高雄市三民區自立一路242號1樓,高雄市,三民區,120.29638420000003,22.642202,高雄自立加盟門市,加盟店
高雄市三民區天祥一路170號,高雄市,三民區,120.31848300000001,22.6679659,高雄天祥直營門市,直營店
高雄市三民區覺民路239號,高雄市,三民區,120.33882289999997,22.639483,高雄覺民直營門市,直營店
高雄市三民區十全一路349號,高雄市,三民區,120.30619100000001,22.644986,高雄十全直營門市,直營店
高雄市三民區建興路243號,高雄市,三民區,120.32478020000008,22.6444225,三民建興加盟門市,加盟店
高雄市三民區義華路384號,高雄市,三民區,120.33347400000002,22.6436602,高雄義華直營門市,直營店
高雄市三民區大昌二路552號,高雄市,三民區,120.32987700000001,22.652054,高雄大昌直營門市,直營店
高雄市三民區陽明路257號,高雄市,三民區,120.34186199999999,22.642449,高雄陽明直營門市,直營店
高雄市三民區建工路502號,高雄市,三民區,120.32644099999993,22.65121,高雄建工直營門市,直營店
高雄市三民區自由一路117號,高雄市,三民區,120.30848700000001,22.644126,高雄高醫直營門市,直營店
高雄市三民區明仁路21號,高雄市,三民區,120.31393300000002,22.660397,高雄河堤直營門市,直營店
高雄市旗山區延平一路636號,高雄市,旗山區,120.48296830000004,22.8859644,高雄旗山加盟門市,加盟店
高雄市旗山區延平一路722-5號,高雄市,旗山區,120.48319650000008,22.882989,高雄旗山直營門市,直營店
高雄市旗山區延平一路584號,高雄市,旗山區,120.48296299999993,22.8872353,高雄旗山二加盟門市,加盟店
高雄市美濃區中正路一段49號,高雄市,美濃區,120.54193800000007,22.900169,高雄美濃特加盟門市,加盟店
澎湖縣馬公市民生路5之1號,澎湖縣,馬公市,119.56717379999998,23.5675328,澎湖馬公加盟門市,加盟店
澎湖縣馬公市光復路82號,澎湖縣,馬公市,119.57005300000003,23.570933,馬公光復直營門市,直營店
高雄市茄萣區仁愛路三段176號,高雄市,茄萣區,120.1838507,22.9026346,高雄茄萣加盟門市,加盟店
金門縣金城鎮中興路146巷13號,金門縣,金城鎮,118.31934980000005,24.4335853,金門金城直營門市,直營店
屏東縣里港鄉里港路55號,屏東縣,里港鄉,120.49519970000006,22.7758833,屏東里港加盟門市,加盟店
屏東縣屏東市自由路669號,屏東縣,屏東市,120.48111199999994,22.682864,屏東自由加盟門市,加盟店
屏東縣屏東市廣東路518號,屏東縣,屏東市,120.50014570000008,22.6820554,屏東廣東加盟門市,加盟店
屏東縣屏東市大連路60之3號,屏東縣,屏東市,120.50341530000003,22.6819849,屏東大連加盟門市,加盟店
屏東縣屏東市自由路181號,屏東縣,屏東市,120.49440989999994,22.669449,屏東明治加盟門市,加盟店
屏東縣屏東市林森路28號,屏東縣,屏東市,120.49884539999994,22.6711836,屏東林森加盟門市,加盟店
屏東縣屏東市民族路120號,屏東縣,屏東市,120.48486730000002,22.6706762,屏東民族加盟門市,加盟店
屏東縣屏東市民族路186號,屏東縣,屏東市,120.48202459999993,22.6709635,屏東屏一加盟門市,加盟店
屏東縣屏東市廣東路659號1樓,屏東縣,屏東市,120.49619099999995,22.685302,屏東廣東二加盟門市,加盟店
屏東縣屏東市大武里大武路103號,屏東縣,屏東市,120.47639300000003,22.65706,屏東大武加盟門市,加盟店
屏東縣屏東市民生路63之7號,屏東縣,屏東市,120.50267839999992,22.6646138,屏東民生二加盟門市,加盟店
屏東縣屏東市中正路257之1號,屏東縣,屏東市,120.49193620000005,22.682357,屏東中正加盟門市,加盟店
屏東縣屏東市仁愛路93號,屏東縣,屏東市,120.49560480000002,22.6804842,屏東仁愛加盟門市,加盟店
屏東縣屏東市中華路4號,屏東縣,屏東市,120.48961280000003,22.6712818,屏東中華直營門市,直營店
屏東縣屏東市自由路586-5號,屏東縣,屏東市,120.48552670000004,22.6835493,屏東縣府直營門市,直營店
屏東縣屏東市民生路22號,屏東縣,屏東市,120.49869999999999,22.667284,屏東民生直營門市,直營店
屏東縣屏東市仁愛路75-1號,屏東縣,屏東市,120.49294069999996,22.6729669,屏東仁愛直營門市,直營店
屏東縣鹽埔鄉新圍村德協路3號,屏東縣,鹽埔鄉,120.55716899999993,22.7403373,屏東鹽埔加盟門市,加盟店
屏東縣潮州鎮新生路6號,屏東縣,潮州鎮,120.53802399999995,22.549097,潮州新生加盟門市,加盟店
屏東縣潮州鎮新生路137號,屏東縣,潮州鎮,120.53964919999999,22.5516025,潮州新生二加盟門市,加盟店
屏東縣潮州鎮延平路147號,屏東縣,潮州鎮,120.54029319999995,22.5551215,屏東潮州直營門市,直營店
屏東縣潮州鎮新生路70之1號,屏東縣,潮州鎮,120.53853939999999,22.5489242,潮州站前加盟門市,加盟店
屏東縣萬丹鄉萬全村萬丹路一段362號,屏東縣,萬丹鄉,120.48900879999997,22.5912564,屏東萬丹二加盟門市,加盟店
屏東縣萬丹鄉和平西路1號,屏東縣,萬丹鄉,120.4899034,22.5878096,屏東萬丹加盟門市,加盟店
屏東縣高樹鄉高樹村南興路121號,屏東縣,高樹鄉,120.60144639999999,22.8237296,高樹南興加盟門市,加盟店
屏東縣內埔鄉廣濟路351號,屏東縣,內埔鄉,120.56567199999995,22.616738,內埔廣濟加盟門市,加盟店
屏東縣內埔鄉廣濟路167號,屏東縣,內埔鄉,120.566554,22.61264,內埔廣濟二加盟門市,加盟店
屏東縣內埔鄉龍泉村原勝路141號1樓,屏東縣,內埔鄉,120.59991200000002,22.66739,內埔龍泉加盟門市,加盟店
屏東縣林邊鄉中林路38號,屏東縣,林邊鄉,120.51635570000008,22.4328448,屏東林邊加盟門市,加盟店
屏東縣枋寮鄉地利村中山路二段388號,屏東縣,枋寮鄉,120.59399459999997,22.3880184,屏東枋寮加盟門市,加盟店
屏東縣恆春鎮恆南路236號,屏東縣,恆春鎮,120.74472600000001,22.00028,屏東恆春直營門市,直營店
屏東縣恆春鎮省北路69之1號,屏東縣,恆春鎮,120.74431900000002,22.012048,恆春省北加盟門市,加盟店
台東縣關山鎮和平路1號1樓,台東縣,關山鎮,121.16287139999997,23.0453804,台東關山加盟門市,加盟店
花蓮縣玉里鎮中山路二段148號,花蓮縣,玉里鎮,121.3143546,23.3353486,花蓮玉里加盟門市,加盟店
台東縣台東市新生路255之2號,台東縣,台東市,121.14349859999993,22.7567305,台東新生加盟門市,加盟店
台東縣台東市中山路392號,台東縣,台東市,121.14785729999994,22.7529715,台東中山直營門市,直營店
台東縣台東市中華路一段540號,台東縣,台東市,121.14996789999998,22.7510994,台東東海加盟門市,加盟店
台東縣台東市更生路186號,台東縣,台東市,121.14769819999992,22.7590804,台東更生加盟門市,加盟店
台東縣台東市中華路一段342號,台東縣,台東市,121.15384140000003,22.7548192,台東中華直營門市,直營店
屏東縣東港鎮中山路30號,屏東縣,東港鎮,120.4517151,22.4661583,東港中山加盟門市,加盟店
屏東縣東港鎮中正路163號,屏東縣,東港鎮,120.45038640000007,22.4679734,東港中正直營門市,直營店
屏東縣東港鎮中正路267號,屏東縣,東港鎮,120.45249280000007,22.4702891,屏東東港加盟門市,加盟店
花蓮縣花蓮市中正路531號,花蓮縣,花蓮市,121.60681109999996,23.9770417,花蓮中正直營門市,直營店
花蓮縣花蓮市中華路466號,花蓮縣,花蓮市,121.59341740000002,23.9745609,花蓮吉安直營門市,直營店
花蓮縣花蓮市中山路128號,花蓮縣,花蓮市,121.61022720000005,23.9761019,花蓮中山直營門市,直營店
花蓮縣花蓮市中山路599號,花蓮縣,花蓮市,121.60023189999993,23.988454,花蓮中山加盟門市,加盟店
花蓮縣花蓮市和平路581號B1,花蓮縣,花蓮市,121.59979780000003,23.9783581,花蓮愛買直營門市,直營店
花蓮縣吉安鄉中華路二段146號,花蓮縣,吉安鄉,121.58458859999996,23.9738492,吉安中華加盟門市,加盟店
