address,lat,lng,name,storeType
基隆市七堵區明德一路161號1樓,121.713516,25.097294,七堵明德,特約
基隆市暖暖區暖同里暖暖街220之2號,121.7347642,25.0982461,基隆暖暖,特約
基隆市安樂區安一路119號,121.7321463,25.1317337,新基隆安一,特約
基隆市安樂區安樂路2段137號,121.7243937,25.121668,基隆安樂直營服務中心,直營
基隆市仁愛區愛三路33號,121.742136,25.128039,基隆愛三直營服務中心,直營
基隆市仁愛區仁二路189號,121.7448404,25.1285528,基隆仁二直營服務中心,直營
基隆市中正區義一路38號1樓,121.7455565,25.1325678,基隆義一直營服務中心,直營
基隆市信義區深溪路115號,121.7824508,25.1340928,基隆深溪直營服務中心,直營
台中市東勢區豐勢路474號,120.828664,24.2568099,東勢豐勢,特約
台中市后里區三豐路三段981號1樓,120.7220906,24.3084487,后里三豐,特約
台中市外埔區甲后路369號1樓,120.6542232,24.3308947,外埔甲后,特約
台中市豐原區向陽路275之2號,120.728462,24.251276,豐原向陽,特約
台中市大甲區文武路26號1樓,120.6256872,24.3459077,大甲文武,特約
台中市大甲區蔣公路134號,120.622705,24.3460716,大甲蔣公,特約
台中市豐原區博愛街2號1樓,120.7208102,24.2515921,豐原博愛,特約
台中市新社區興安路18之49號,120.616635,24.347274,新社興安,特約
台中市豐原區中正路258號,120.716326,24.252047,豐原廟東,特約
台中市豐原區中正路663號1樓,120.7063276,24.2498027,豐原成功,特約
台中市潭子區中山路2段432號1樓,120.7050733,24.2149843,潭子中山,特約
台中市大雅區民生路2段2號,120.6543634,24.229374,大雅民生Ⅱ,特約
台中市大雅區民生路1段95號1樓,120.6480608,24.226661,大雅學府,特約
台中市北屯區崇德路3段606號1樓,120.6867125,24.1933747,北屯崇德,特約
台中市大雅區中清路4段26號,120.6386638,24.2328166,大雅中清,特約
台中市北屯區松竹路2段182號1樓,120.69541,24.1834,北屯松竹,特約
台中市北屯區東山路1段156之3號1樓,120.7076241,24.1697787,北屯東山,特約
台中市北屯區昌平路1段105之7號1樓,120.6904293,24.1733043,北屯昌平,特約
台中市太平區中山路3段156號1樓,120.717933,24.148981,太平中山,特約
台中市神岡區昌平路五段482號1樓,120.574748,24.267839,神岡昌平,特約
台中市清水區中山路203號,120.574748,24.267839,清水中山,特約
台中市太平區中山路4段85號1樓,120.7108933,24.1496305,太平中山II,特約
台中市北屯區北屯路48號1樓,120.6929442,24.1619683,北屯北屯Ⅱ,特約
台中市北屯區中清路二段258號1樓,120.6686877,24.1782866,北屯中清,特約
台中市大里區成功二路1號1樓,120.6854635,24.1633582,大里成功,特約
台中市北區進化北路303號1樓,120.6821156,24.1629225,北區進化北,特約
台中市北區漢口路4段35號1樓,120.6732719,24.1670546,北區漢口,特約
台中市北區中清路1段432號1樓,120.6734867,24.1665219,北區大雅Ⅱ,特約
台中市東區進化路202之3號1樓,120.694599,24.1474899,東區進化,特約
台中市太平區太平路356號1樓,120.7172059,24.124113,太平太平Ⅱ,特約
台中市太平區太平路590號1樓,120.7127947,24.1258146,太平太平,特約
台中市西屯區逢甲路169號1樓,120.6423784,24.1777724,西屯逢甲,特約
台中市沙鹿區光華路343號1樓,120.564871,24.242424,沙鹿光華,特約
台中市中區台灣大道1段558號1樓,120.6765559,24.145244,中區中正,特約
台中市沙鹿區北勢東路528號1樓,120.5755604,24.2265345,沙鹿靜宜,特約
台中市沙鹿區中山路399號,120.5603607,24.2406574,沙鹿中山,特約
台中市西屯區西屯路3段166之77號1樓,120.612541,24.1904759,西屯中科,特約
台中市西區美村路1段261號1樓,120.6618778,24.1483037,西區美村Ⅱ,特約
台中市西區五權五街80號1樓,120.6619089,24.1366903,西區美村III,特約
台中市梧棲區民生街69號1樓,120.529671,24.253808,梧棲民生,特約
台中市南屯區東興路2段184號1樓,120.653243,24.141191,南屯東興,特約
台中市大里區中興路2段534號,120.6900122,24.1132007,大里內新,特約
台中市大里區大明路233號1樓,120.6817825,24.1151529,大里大明,特約
台中市南屯區東興路2段23號1樓,120.652784,24.136901,南屯東興II,特約
台中市南屯區黎明路2段311號1樓、313號1樓 ,120.635323,24.1494069,南屯黎明II,特約
台中市大里區中興路2段350之1號1樓,120.689311,24.1051059,大里中興V,特約
台中市西屯區大墩路875號1樓,120.638337,24.141949,西屯大墩,特約
台中市南區美村南路140號1樓,120.670202,24.1165092,南區美村南,特約
台中市龍井區新興路40之9號1樓,120.5879974,24.1810247,龍井新興,特約
台中市大里區塗城路429號1樓,120.7057383,24.086746,大里塗城Ⅱ,特約
台中市龍井區遊園南路215、217號,120.5838681,24.181357,龍井遊園南,特約
台中市大里區中興路1段297號1樓,120.6913523,24.0916241,大里中興Ⅲ,特約
台中市大里區中興路1段217號1樓,120.692694,24.090419,大里中興,特約
台中市南區復興路1段439號1樓,120.656885,24.1167089,南區復興Ⅲ,特約
台中市南屯區永春南路91號,120.6108484,24.1384343,南屯嶺東,特約
台中市霧峰區中正路1093號1樓,120.6970302,24.0686419,霧峰中正,特約
台中市霧峰區中正路860號,120.6987052,24.0644768,霧峰中正Ⅱ,特約
台中市烏日區中山路1段449號1樓,120.6373079,24.1076052,烏日中山,特約
台中市烏日區中山路2段209號1樓,120.6252954,24.1061568,烏日光日,特約
台北市中正區中華路2段103號1樓,121.5053511,25.0331663,中正中華,特約
台北市萬華區桂林路119號1樓,121.5001537,25.0385859,萬華龍山寺,特約
台北市中山區吉林路290號,121.5279007,25.0611143,中山錦州,特約
台北市大同區延平北路3段22號1樓,121.511047,25.064084,大同延平北,特約
台北市大安區羅斯福路3段19號,121.5249901,25.023918,大安古亭,特約
台北市中山區龍江路311號1樓,121.5408925,25.061189,中山龍江II,特約
台北市萬華區萬大路445號,121.4984982,25.0209643,萬華萬大,特約
台北市士林區文林路182號1樓,121.5270637,25.0896376,士林文林,特約
台北市中山區北安路618之3號1樓,121.549109,25.082464,大直實踐,特約
台北市文山區興隆路3段22號,121.5549873,25.0005243,文山興隆,特約
台北市文山區羅斯福路6段238號,121.54025,24.992326,文山景美,特約
台北市北投區吉利街114號,121.5044288,25.1185117,北投吉利,特約
台北市內湖區成功路3段131號,121.5897906,25.0792387,內湖成功,特約
台北市北投區光明路170號,121.5029312,25.1354116,北投光明,特約
台北市北投區中和街297號,121.500123,25.1405169,北投中和,特約
台北市中正區忠孝西路1段38號1樓,121.5164218,25.0462585,台北站前直營服務中心,直營
台北市中正區衡陽路55號,121.512039,25.042393,台北衡陽直營服務中心,直營
台北市大同區南京西路22號,121.5199823,25.0525835,台北南京西直營服務中心,直營
台北市中山區林森北路87號1樓,121.5249799,25.049907,台北林森北直營服務中心,直營
台北市萬華區西寧南路165號1樓,121.506166,25.043105,台北西門町直營服務中心,直營
台北市大同區民生西路92號,121.5178406,25.0574383,台北雙連直營服務中心,直營
台北市中山區林森北路263號之1-2,121.5255759,25.0544804,台北林森北二直營服務中心,直營
台北市大同區延平北路2段156號,121.511402,25.05795,大同延平北二直營服務中心,直營
台北市中山區南京東路2段20號1樓,121.5288294,25.0518671,台北南京東二直營服務中心,直營
台北市中正區市民大道3段2號,121.530989,25.0453633,台灣大哥大數位生活台北三創直營服務中心,直營
台北市中山區錦西街4之4號1樓,121.5221705,25.0602105,台北錦西直營服務中心,直營
台北市中正區濟南路2段60之1號,121.5319011,25.0400988,台北濟南直營服務中心,直營
宜蘭縣礁溪鄉礁溪路5段39號,121.7714968,24.826588,礁溪中正,特約
宜蘭縣頭城鎮民鋒路11號1樓,121.823272,24.8584589,頭城民鋒,特約
宜蘭縣員山鄉員山路1段17號1樓,121.731602,24.7478931,宜蘭員山,特約
宜蘭縣宜蘭市舊城東路85號1樓,121.7564197,24.7580916,宜蘭舊城東,特約
宜蘭縣宜蘭市神農路2段76號1樓,121.7490361,24.7517365,宜蘭神農,特約
宜蘭縣羅東鎮興東路13之2號1樓,121.7653926,24.6756843,羅東夜市,特約
宜蘭縣羅東鎮大新里公正路65號,121.7723582,24.6779392,羅東公正,特約
宜蘭縣羅東鎮中正路9號1樓,121.770244,24.6729503,羅東中正,特約
宜蘭縣冬山鄉義成路3段417號,121.7682145,24.6681905,冬山義成,特約
宜蘭縣蘇澳鎮中山路1段99號1樓,121.7973103,24.6721781,蘇澳中山,特約
宜蘭縣宜蘭市中山路3段100號,121.752802,24.7574979,宜蘭中山二直營服務中心,直營
宜蘭縣宜蘭市神農路1段192號,121.7480471,24.748794,宜蘭神農二直營服務中心,直營
宜蘭縣羅東鎮公正路239號1樓,121.7654485,24.6796382,羅東公正二直營服務中心,直營
宜蘭縣羅東鎮興東路150號,121.7693045,24.6804518,羅東興東直營服務中心,直營
台中市大肚區沙田路2段772號1樓,120.5443782,24.1542401,大肚沙田,特約
台中市東勢區豐勢路324號1樓,120.8298001,24.2531441,東勢豐勢二直營服務中心,直營
台中市后里區甲后路一段303號,120.7259936,24.308913,后里甲后直營服務中心,直營
台中市豐原區中正路2之1號,120.72227,24.253886,豐原站前直營服務中心,直營
台中市大甲區光明路52號,120.6243622,24.3440197,大甲光明直營服務中心,直營
台中市豐原區南陽路370號1樓,120.725323,24.2465589,豐原南陽直營服務中心,直營
台中市豐原區中正路448號,120.710284,24.250891,豐原中正直營服務中心,直營
台中市豐原區中山路143之4號1樓,120.7113017,24.2397025,豐原中山直營服務中心,直營
台中市潭子區潭興路3段15號1樓,120.704678,24.2115955,潭子潭興直營服務中心,直營
台中市潭子區勝利路251號,120.7005526,24.2127766,潭子勝利直營服務中心,直營
台中市潭子區中山路1段168號,120.7025661,24.1908538,潭子頭家厝直營服務中心,直營
台中市北屯區東山路1段250之2號,120.7182714,24.1755678,東山軍功直營服務中心,直營
台中市大雅區民興街147號1樓,120.6496394,24.2267303,大雅民生直營服務中心,直營
台中市北屯區昌平路1段446號,120.6905173,24.1765755,台中昌平直營服務中心,直營
台中市北屯區文心路4段936號1樓,120.69447,24.1707679,文心興安直營服務中心,直營
台中市清水區中山路212號,120.5766185,24.2715577,清水中山二直營服務中心,直營
台中市太平區樹孝路8之3號,120.716681,24.150226,太平樹孝直營服務中心,直營
台中市北屯區崇德路2段178號,120.6856337,24.173164,崇德文心直營服務中心,直營
台中市北屯區北屯路178之7號,120.6947308,24.1654632,台中北屯直營服務中心,直營
台中市北屯區崇德路2段3號,120.6849896,24.168638,台中崇德直營服務中心,直營
台中市北屯區中清路二段630、632號,120.6656096,24.183361,台中中清直營服務中心,直營
台中市清水區海濱路168之1號,120.5658557,24.2734574,清水中華直營服務中心,直營
台中市北屯區文心路四段151號1、2樓,120.676002,24.173775,台中文心直營服務中心,直營
台中市北區北平路2段182號1樓,120.6779531,24.1712727,台中北平直營服務中心,直營
台中市東區十甲路417、419號,120.7082487,24.1445536,台中十甲直營服務中心,直營
台中市太平區中山路4段228及230號,120.701724,24.148316,太平中山三直營服務中心,直營
台中市北區漢口路3段192號,120.6725117,24.1668667,台中漢口直營服務中心,直營
台中市北區學士路157號,120.680753,24.158519,台中學士直營服務中心,直營
苗栗縣頭份市中正路45號,120.9067866,24.6841344,頭份中正,特約
苗栗縣竹南鎮延平路158之6號1樓,120.8746805,24.6881867,竹南延平,特約
苗栗縣後龍鎮中北街256之4號1樓,120.7859143,24.6150738,後龍中北,特約
苗栗縣公館鄉大同路110號1樓,120.8280483,24.5012665,公館大同,特約
苗栗縣通霄鎮中正路45號1樓,120.6811549,24.4899975,通霄中正,特約
苗栗縣苑裡鎮中山路133之1號,120.6509267,24.4420681,苑裡中山,特約
苗栗縣頭份市信東路181號1樓,120.9087231,24.6903753,頭份信東直營服務中心,直營
苗栗縣頭份市中正路183號,120.9105606,24.6871871,頭份中正二直營服務中心,直營
苗栗縣竹南鎮光復路231號,120.87934,24.6893962,竹南光復直營服務中心,直營
苗栗縣竹南鎮博愛街142號,120.87551,24.6869963,竹南博愛直營服務中心,直營
苗栗縣苗栗市中正路501號,120.8214576,24.5588924,苗栗中正直營服務中心,直營
苗栗縣苗栗市府前路131號1樓,120.8186174,24.5606152,苗栗府前直營服務中心,直營
苗栗縣苗栗市中正路1049號1樓,120.8163114,24.5483622,苗栗中正二直營服務中心,直營
台北市中正區南昌路1段107號,121.5181918,25.0301289,台北南昌直營服務中心,直營
台北市大安區信義路2段154號1樓,121.528855,25.033649,台北永康直營服務中心,直營
台北市大安區杭州南路2段107號,121.521882,25.028206,台北杭州南直營服務中心,直營
台北市中山區農安街19號,121.5240697,25.0650189,台北農安直營服務中心,直營
台北市萬華區中華路2段432號1樓,121.506303,25.027305,台北中華直營服務中心,直營
台北市大安區忠孝東路3段208號1樓,121.5397644,25.0414588,忠孝正義直營服務中心,直營
台北市中山區民權東路2段87號,121.532248,25.0627029,台北民權東直營服務中心,直營
台北市大安區和平東路1段232號,121.53236,25.026079,台北和平東直營服務中心,直營
台北市萬華區萬大路275號1樓,121.5005821,25.0254473,台北萬大直營服務中心,直營
台北市大同區酒泉街141號1樓,121.5142129,25.072125,台北酒泉直營服務中心,直營
台北市松山區南京東路3段309號,121.5444551,25.0525835,微風南京直營服務中心,直營
台北市萬華區西園路2段288號1樓,121.4939572,25.0272989,台北西園直營服務中心,直營
台北市大安區忠孝東路4段71號1樓,121.546878,25.041899,台北頂好直營服務中心,直營
台北市中山區民權東路3段51號1樓,121.5429164,25.0625582,台北民權東二直營服務中心,直營
台北市大安區信義路4段48號,121.5451571,25.033176,台北信義直營服務中心,直營
台北市中山區龍江路360號1樓,121.5408708,25.0661323,台北龍江二直營服務中心,直營
台北市大安區復興南路2段179號,121.5437167,25.0269358,台北復興南直營服務中心,直營
台北市大安區羅斯福路3段289號1樓,121.531539,25.0178,台北公館直營服務中心,直營
台北市松山區八德路3段34號,121.5519529,25.0480585,台北八德直營服務中心,直營
台北市大安區忠孝東路4段216巷14號,121.5528225,25.0406293,台北東區直營服務中心,直營
台北市松山區民生東路4段71號,121.551181,25.058062,台北民生東直營服務中心,直營
新竹縣關西鎮正義路61號1樓,121.1738004,24.7932159,關西正義,特約
新竹縣湖口鄉中正路1段121號1樓,121.0469522,24.9009781,湖口中正,特約
新竹縣竹北市中正東路209號1樓,121.014828,24.834996,竹北中正東,特約
新竹縣湖口鄉仁和路21號,121.0122088,24.8745571,湖口仁和直營服務中心,直營
新竹縣竹東鎮長春路3段116號,121.0846074,24.7425692,竹東長春直營服務中心,直營
新竹縣竹東鎮東寧路3段90號,121.0868574,24.738783,竹東東寧直營服務中心,直營
新竹縣竹北市自強南路66號1樓,121.0266687,24.8183373,竹北自強直營服務中心,直營
新竹縣新豐鄉新興路173號1樓,120.9944185,24.8683817,新豐新興二直營服務中心,直營
新竹縣竹北市三民路320號1樓,121.00957,24.8345261,竹北三民直營服務中心,直營
新竹縣竹北市光明六路95號,121.0091426,24.8271659,竹北光明直營服務中心,直營
新竹縣竹北市中正西路94號,121.0023521,24.8401692,竹北中正西直營服務中心,直營
新竹市東區光復路1段362之3號,121.0146463,24.7842239,新竹光復II,特約
新竹市北區西門里西大路522號1樓,120.9631527,24.8054769,新竹西大,特約
新竹市東區光復路1段182號1樓,121.021828,24.781975,新竹光復直營服務中心,直營
新竹市東區光復路2段318號1樓,120.9984705,24.7957468,新竹清大直營服務中心,直營
新竹市東區民權路171號1樓,120.9740886,24.8093454,新竹巨城直營服務中心,直營
新竹市北區水田街93、95號,120.9678024,24.8157457,新竹水田直營服務中心,直營
新竹市東區中正路9、11號,120.9711191,24.8029067,新竹中正直營服務中心,直營
新竹市北區中正路167號1樓,120.9661913,24.809508,新竹中正三直營服務中心,直營
新竹市東區南大路364號,120.970153,24.798204,新竹南大直營服務中心,直營
新竹市東區林森路167號1樓,120.964943,24.799309,新竹林森直營服務中心,直營
新竹市香山區中華路5段18號,120.928106,24.7885611,新竹香山直營服務中心,直營
桃園市龜山區萬壽路1段98號1樓,121.4080897,25.0187971,迴龍萬壽,特約
桃園市龜山區文化二路88號1樓,121.3678001,25.0557524,龜山長庚,特約
桃園市龜山區復興一路145號,121.3664383,25.0588245,林口長庚,特約
桃園市龜山區中興路306號1樓,121.3343087,24.9910681,龜山后街,特約
桃園市八德區桃鶯路64號,121.3272026,24.9707635,八德桃鶯,特約
桃園市桃園區大業路1段428號1樓,121.3117106,25.014825,桃園大業,特約
桃園市桃園區民生路16號,121.314862,24.990877,桃園站前,特約
桃園市桃園區桃鶯路143號,121.3159406,24.9861524,桃園建國,特約
桃園市桃園區南平路100號1樓,121.3034835,25.0203471,桃園南平,特約
桃園市桃園區中正路541號1樓,121.3054601,25.0032489,桃園中正,特約
桃園市蘆竹區仁愛路3段1號,121.3001591,25.0533326,蘆竹中山,特約
桃園市桃園區中正路933號1樓,121.299994,25.0124054,桃園大興西,特約
桃園市桃園區豐林里三民路3段448號,121.3049942,24.9849,桃園三民,特約
桃園市蘆竹區新南路1段2號,121.293845,25.0471749,蘆竹南崁,特約
桃園市蘆竹區忠孝西路76號1樓,121.2902884,25.0417763,蘆竹忠孝西,特約
桃園市八德區義勇街112號1樓,121.3017872,24.9635768,八德義勇,特約
桃園市蘆竹區南山路3段286號,121.286345,25.084899,蘆竹南山,特約
桃園市八德區大智路35號,121.2992208,24.964341,八德大智,特約
桃園市八德區介壽路1段876號1樓,121.2994584,24.9602911,八德介壽II,特約
桃園市桃園區國際路1段1107號1樓,121.2871046,24.9869615,桃園國際,特約
桃園市桃園區龍安里龍安街145號,121.279572,24.991217,桃園龍安,特約
桃園市八德區介壽路2段1155號,121.2975558,24.9326581,八德更寮腳,特約
桃園市蘆竹區大竹路405號1樓,121.2613203,25.021155,蘆竹大竹,特約
桃園市大園區三民路2段601號,121.2585985,25.0750738,大園林,特約
桃園市中壢區環中東路9號1樓,121.2605485,24.9670313,內壢環中東,特約
桃園市中壢區中原里忠孝路34號,121.256496,24.9733208,內壢忠孝,特約
桃園市中壢區自立里環中東路196號1樓,121.2580405,24.9643194,中壢環中,特約
桃園市中壢區文化路348號1樓,121.2510915,24.9789229,內壢文化,特約
桃園市中壢區中山東路4段109號,121.257231,24.935901,中壢士校,特約
新北市三重區重新路3段38之2號,121.494497,25.061126,三重重新,特約
新北市三重區正義北路96號,121.496865,25.064877,三重正義北,特約
新北市三重區集成路26號,121.4886543,25.0523569,三重集成,特約
新北市三重區三和路2段129號,121.4987232,25.0692906,三重三和II,特約
新北市三重區重陽路2段10號1樓,121.486609,25.062072,三重重陽,特約
新北市三重區龍門路137號,121.4961664,25.0727487,三重龍門,特約
新北市永和區永和路2段201號,121.515259,25.013708,永和永和III,特約
新北市永和區中山路1段190號,121.508837,25.008879,永和中山,特約
新北市板橋區文化路2段406號,121.4741389,25.0314225,板橋文化,特約
新北市三重區中正北路177號,121.4778366,25.0695552,三重中正北,特約
新北市三重區溪尾街181號,121.4888256,25.080503,三重溪尾,特約
新北市三重區三和路4段165之2號,121.4833334,25.0786902,三重幸福,特約
新北市板橋區三民路2段202之19號,121.4787753,25.0133687,板橋三民,特約
新北市永和區成功路2段80號,121.5265666,24.9989749,永和成功,特約
新北市蘆洲區中山一路31號,121.479144,25.080753,蘆洲中山一,特約
新北市中和區景平路537號,121.4987379,24.9992183,中和景平II,特約
彰化縣彰化市彰南路1段332號1樓,120.5735021,24.0858123,彰化彰南,特約
彰化縣伸港鄉新港路140號,120.4871489,24.1452199,伸港新港,特約
彰化縣彰化市彰美路一段276號、278號,120.536071,24.0904059,彰化彰美,特約
彰化縣芬園鄉彰南路4段142號1樓,120.6285828,24.0145659,芬園彰南,特約
彰化縣和美鎮彰美路6段105號,120.496759,24.114056,和美彰美,特約
彰化縣彰化市中正路2段148號1樓,120.53718,24.0787683,彰化中正III,特約
彰化縣彰化市曉陽路177號1樓,120.5379665,24.0726506,彰化曉陽,特約
彰化縣彰化市大埔路679號1樓,120.5425214,24.0680576,彰化大埔,特約
彰化縣花壇鄉中正路267號,120.540496,24.02571,花壇中正,特約
彰化縣大村鄉中正西路10號1樓,120.5633958,23.989309,大村中正西,特約
彰化縣秀水鄉彰水路2段760號1樓,120.500057,24.0343435,秀水彰水,特約
彰化縣員林市三民東街388號,120.5830197,23.9608495,員林三民東,特約
彰化縣員林市中正路658號1樓,120.57151,23.96294,員林中正,特約
彰化縣員林市靜修路65號,120.567127,23.962041,員林靜修,特約
彰化縣和美鎮道周路臨442號,120.572277,23.958315,和美道周,特約
彰化縣員林市中正路451號,120.572277,23.958315,員林中正Ⅲ,特約
彰化縣鹿港鎮中正路389號1樓,120.4391672,24.0590435,鹿港中正,特約
彰化縣鹿港鎮民權路110號,120.4341428,24.0575317,鹿港民權,特約
彰化縣福興鄉沿海路5段326號,120.4288523,24.0499198,福興沿海,特約
彰化縣埔心鄉員鹿路2段368號1樓,120.5406519,23.9529152,埔心公所,特約
彰化縣北斗鎮中華路380號,120.5504764,23.9258872,北斗斗苑,特約
彰化縣永靖鄉瑚璉路129號1樓,120.5482823,23.9258921,永靖瑚璉Ⅱ,特約
彰化縣社頭鄉員集路2段259號,120.5853458,23.8994167,社頭員集,特約
彰化縣溪湖鎮彰水路3段477號,120.4799466,23.9637354,溪湖彰水,特約
彰化縣溪湖鎮西環路171號1樓,120.47764,23.95649,溪湖西環,特約
彰化縣田中鎮中州路1段72號1樓,120.5872105,23.858275,田中中州,特約
彰化縣田中鎮員集路2段372號1樓,120.5856179,23.8583678,田中員集,特約
彰化縣北斗鎮中華路267號1樓,120.521716,23.8728631,北斗中華,特約
彰化縣埤頭鄉斗苑西路236號,120.4598856,23.8916922,埤頭斗苑西,特約
彰化縣二林鎮二溪路1段3號1樓,120.3691504,23.9014461,二林二溪,特約
台中市北區三民路3段142號1~2樓,120.6849744,24.1513593,台中三民直營服務中心,直營
台中市西屯區漢口路2段223-1及223-2號,120.664335,24.1667679,漢口河南直營服務中心,直營
台中市太平區中興路108號,120.715503,24.1271672,太平中興直營服務中心,直營
台中市西屯區福星路338號,120.644941,24.1799506,逢甲福星直營服務中心,直營
台中市北區太平路89之1號,120.6837051,24.1480874,台中一中直營服務中心,直營
台中市西屯區河南路2段300號,120.6484577,24.1746738,台中河南直營服務中心,直營
台中市北區西屯路一段403、405號,120.664192,24.161707,西屯忠明直營服務中心,直營
台中市北區民權路410號1樓,120.67075,24.156168,民權英才直營服務中心,直營
台中市西屯區青海路1段106號1樓,120.6544616,24.1648041,台中青海直營服務中心,直營
台中市西屯區西屯路2段28之1號,120.6490066,24.1685077,台中西屯直營服務中心,直營
台中市東區復興路4段201號1樓,120.687103,24.1364649,台中新時代直營服務中心,直營
台中市沙鹿區中山路465、467號,120.561538,24.244104,沙鹿中山二直營服務中心,直營
台中市西區美村路1段43號1樓,120.661967,24.154164,台中美村直營服務中心,直營
台中市中區自由路2段43號1樓,120.6811883,24.1392694,台中自由直營服務中心,直營
台中市西區五權路40、42號,120.671623,24.14548,五權民權直營服務中心,直營
台中市西屯區永福路179、181號1樓,120.621522,24.186203,台中永福直營服務中心,直營
台中市南區台中路178號1樓,120.6847401,24.1305121,台中忠孝直營服務中心,直營
台中市西區精誠路43之8號,120.6552789,24.1528811,台中精誠直營服務中心,直營
台中市沙鹿區沙田路124號,120.559319,24.2357277,台中沙鹿直營服務中心,直營
台中市南區復興路3段314號1樓,120.678348,24.132284,台中復興直營服務中心,直營
台中市西屯區中工三路46號1樓,120.6190772,24.1799112,台中中工三直營服務中心,直營
台北市松山區南京東路4段105號1樓,121.5551223,25.0501847,台北寧安直營服務中心,直營
台北市大安區和平東路3段49號,121.5489767,25.0253111,台北敦南直營服務中心,直營
台北市大安區通化街16號,121.5540932,25.0320727,台北通化二直營服務中心,直營
台北市信義區光復南路433號1樓,121.5576874,25.0358495,台北光復南直營服務中心,直營
台北市士林區延平北路5段311號1樓,121.5093372,25.0863325,士林延平北直營服務中心,直營
台北市信義區菸廠路80號,121.5615044,25.0449799,台灣大哥大數位生活台北文創直營服務中心,直營
台北市松山區南京東路5段84號,121.561403,25.0512622,南京三民直營服務中心,直營
台北市士林區文林路32號1樓,121.525704,25.086776,士林夜市直營服務中心,直營
台北市松山區民生東路5段103號1樓,121.5600147,25.0587874,台北民生東二直營服務中心,直營
台北市松山區東興路12號,121.565134,25.049908,台北東興直營服務中心,直營
台北市信義區松壽路20號,121.5670989,25.0356356,台北威秀直營服務中心,直營
台北市信義區永吉路30巷84號,121.5687018,25.0441912,台北永吉直營服務中心,直營
台北市士林區中正路327號,121.5232009,25.0945422,士林中正直營服務中心,直營
台北市文山區羅斯福路5段266號1樓,121.5393686,25.0005462,景美萬隆直營服務中心,直營
台北市信義區莊敬路467號1樓,121.567894,25.026946,台北莊敬直營服務中心,直營
台北市士林區文林路678號,121.522443,25.101273,台北文林直營服務中心,直營
台北市信義區松山路131號,121.578041,25.047149,台北五分埔直營服務中心,直營
台北市信義區松山路484之4號1樓,121.5778586,25.0389654,台北松山直營服務中心,直營
南投縣仁愛鄉仁和路138號1樓,121.1665676,24.0727239,仁愛霧社,特約
南投縣埔里鎮西寧路80號,120.964811,23.9673149,埔里西寧,特約
南投縣埔里鎮中山路2段306號1樓,120.9670968,23.9649345,埔里中山,特約
南投縣草屯鎮中正路751號1樓,120.6845832,23.9812225,草屯中正,特約
南投縣草屯鎮中山街156號,120.682891,23.9772459,草屯中山,特約
南投縣南投市三和三路61號1樓,120.6862686,23.9047657,南投三和三,特約
南投縣水里鄉中正路70號1樓,120.8541865,23.8157275,水里中正,特約
南投縣名間鄉南雅街149之3號1樓,120.699664,23.8383546,名間南雅,特約
南投縣竹山鎮集山路3段852號1樓,120.685793,23.758782,竹山集山,特約
南投縣埔里鎮中正路286號1樓,120.9704513,23.9623593,埔里中正直營服務中心,直營
南投縣草屯鎮中正路859號,120.685761,23.983906,草屯中正直營服務中心,直營
南投縣草屯鎮中正路622號,120.6854524,23.9793583,草屯中正二直營服務中心,直營
南投縣南投市民族路195號,120.688643,23.909206,南投民族直營服務中心,直營
南投縣南投市復興路207號1樓,120.6867977,23.9076153,南投復興直營服務中心,直營
南投縣竹山鎮集山路3段1002號及1004號1樓,120.68183,23.756221,竹山集山二直營服務中心,直營
桃園市中壢區中園路155號1樓,121.2338278,24.992773,中壢中園,特約
桃園市中壢區中山東路2段121號1樓,121.239281,24.953434,中壢中山東,特約
桃園市中壢區中央里中山路66號1樓,121.226812,24.9552677,中壢站前,特約
桃園市中壢區復興路47號,121.22542,24.9571359,中壢復興,特約
桃園市中壢區元化路2段19號,121.2223354,24.9622968,中壢元化,特約
桃園市中壢區龍岡路2段128號,121.2271753,24.9452173,中壢龍岡,特約
桃園市中壢區中正路321號,121.217281,24.9552198,中壢中正,特約
桃園市中壢區龍慈路1號,121.219319,24.9452279,中壢龍慈,特約
桃園市平鎮區和平路208號1樓,121.219319,24.9452279,平鎮和平,特約
桃園市大園區大園村中華路67號1樓,121.1985554,25.0668994,大園中華,特約
桃園市大園區中正東路3號1樓,121.197731,25.0642809,大園中正東,特約
桃園市平鎮區中豐路南勢二段124號1樓,121.2085887,24.9158099,平鎮南勢（天元１）,特約
桃園市平鎮區湧光里中豐路山頂段174號,121.2110772,24.9001762,平鎮中豐,特約
桃園市楊梅區光華里中興路70號,121.184571,24.9178442,楊梅埔心,特約
桃園市龍潭區龍潭村北龍路56號1樓,121.212332,24.8652599,龍潭北龍,特約
桃園市楊梅區環東路510號1樓,121.1561043,24.9111283,楊梅環東,特約
桃園市新屋區中山路316號,121.105556,24.9727871,新屋中山,特約
桃園市龜山區萬壽路1段122號1樓,121.406767,25.018554,龜山迴龍直營服務中心,直營
桃園市龜山區文化二路30之6號,121.3645663,25.0604122,龜山文化二直營服務中心,直營
桃園市龜山區中興路431之1號1樓,121.3365626,24.9933197,龜山中興直營服務中心,直營
桃園市桃園區寶山街165號,121.3168944,25.0125163,桃園寶山直營服務中心,直營
桃園市桃園區成功路2段86號,121.3161863,24.9938357,桃園成功直營服務中心,直營
桃園市桃園區桃鶯路283號,121.319041,24.983034,桃園桃鶯直營服務中心,直營
桃園市桃園區中華路30號1樓,121.3109075,24.9910745,桃園中華直營服務中心,直營
桃園市桃園區中正路461號,121.3040467,25.0057991,桃園夜市直營服務中心,直營
桃園市桃園區南華街139號1樓,121.307459,24.992422,桃園南華直營服務中心,直營
桃園市桃園區中正路675號,121.3036771,25.0060842,桃園中正二直營服務中心,直營
桃園市桃園區中正路1220號,121.2975395,25.018633,桃園中正三直營服務中心,直營
桃園市桃園區永安路361號,121.2999964,24.9999167,桃園永安直營服務中心,直營
桃園市蘆竹區南竹路1段49號,121.2909919,25.0467387,桃園蘆竹直營服務中心,直營
桃園市桃園區中山路790號,121.291328,24.991175,新桃園中山直營服務中心,直營
新北市永和區中正路1號,121.5138102,24.9954144,永和中正,特約
新北市新莊區仁義里幸福路9號,121.4592373,25.0493664,新莊幸福,特約
新北市蘆洲區中山二路40號,121.474334,25.0821859,蘆洲中山II,特約
新北市蘆洲區民族路206號,121.4798589,25.0875345,蘆洲民族,特約
新北市中和區景平路343號1樓,121.50524,24.9932167,中和景平,特約
新北市板橋區新海路380號,121.4592464,25.0260652,板橋新海II,特約
新北市中和區景新街398號,121.5125853,24.9895446,中和景新,特約
新北市蘆洲區光華路81號,121.467848,25.082552,蘆洲光華,特約
新北市板橋區國光路190號1樓,121.4611588,25.0183453,板橋國光,特約
新北市中和區復興路255號1樓,121.5030596,24.9901806,中和復興,特約
新北市中和區員山路213號,121.481158,24.9978879,中和員山,特約
新北市蘆洲區光華路140號,121.4661502,25.0824338,蘆洲光華II,特約
新北市蘆洲區三民路130號(1樓),121.4709253,25.087617,蘆洲三民,特約
新北市新莊區中華路1段56號,121.4521036,25.0383623,新莊安寧,特約
新北市板橋區民族路79號1樓,121.465663,25.008635,板橋民族,特約
新北市中和區興南路1段187號,121.508297,24.9864672,中和興南II,特約
新北市板橋區中正路303號1樓,121.455251,25.019579,板橋中正,特約
新北市蘆洲區長安街130號,121.460418,25.081959,蘆洲長安,特約
新北市新莊區中和街131號1樓,121.4472513,25.0488592,新莊中和,特約
新北市板橋區實踐路205之1號,121.4645492,25.0028135,板橋實踐,特約
新北市新莊區新泰路253號,121.4460946,25.0397836,新莊新泰,特約
新北市新莊區中平路89號,121.4446284,25.0460052,新莊中平,特約
新北市蘆洲區長安街307號,121.4578823,25.0851426,蘆洲長安II,特約
新北市板橋區四川路1段379號1樓,121.4582498,24.9994009,板橋四川,特約
新北市新店區民族路64號,121.5395177,24.9784935,新店民族,特約
新北市土城區立德路62號,121.4639771,24.9868634,土城立德,特約
新北市泰山區明志路1段196號1樓,121.4327146,25.061511,泰山明志,特約
彰化縣彰化市中正路1段1號,120.5518431,24.0842153,彰化中正直營服務中心,直營
彰化縣彰化市三民路269號1樓,120.543824,24.08602,彰化三民直營服務中心,直營
彰化縣彰化市中正路1段446號,120.5422792,24.0825615,彰化中正二直營服務中心,直營
彰化縣彰化市和平路9號,120.5402163,24.0788555,彰化和平直營服務中心,直營
彰化縣和美鎮彰美路5段359號,120.4987464,24.1116033,和美彰美二直營服務中心,直營
彰化縣彰化市曉陽路52號,120.541344,24.0723964,彰化曉陽二直營服務中心,直營
彰化縣員林市育英路589之3、4號,120.5735799,23.9689128,員林大同直營服務中心,直營
彰化縣員林市中山南路4號,120.57076,23.9560359,彰化員林直營服務中心,直營
彰化縣員林市中正路126號1樓,120.5758144,23.9523126,員林中正二直營服務中心,直營
彰化縣鹿港鎮中山路173號,120.434918,24.05397,鹿港中山直營服務中心,直營
彰化縣鹿港鎮彰鹿路8段1號1樓,120.4395242,24.049043,鹿港彰鹿直營服務中心,直營
彰化縣溪湖鎮西環路370號1樓,120.4774486,23.9591803,彰化溪湖直營服務中心,直營
彰化縣二林鎮中正路50號1樓,120.3684336,23.8992704,二林中正直營服務中心,直營
台中市西區向上路1段376號,120.656154,24.1469639,台中向上直營服務中心,直營
台中市南區學府路83.85號,120.6749984,24.1257953,興大學府直營服務中心,直營
台中市南屯區向上路1段716號1樓,120.6473016,24.1469092,文心向上直營服務中心,直營
台中市南屯區大墩路285號1樓,120.6497744,24.1436863,台中大墩二直營服務中心,直營
台中市西區美村路1段767號,120.6618413,24.1332771,美村南屯直營服務中心,直營
台中市大里區中興路2段353號1樓,120.689721,24.1110289,台中大里直營服務中心,直營
台中市南屯區黎明路2段436號,120.63534,24.15202,台中黎明直營服務中心,直營
台中市大里區益民路2段270號,120.684063,24.110921,大里益民直營服務中心,直營
台中市南屯區南屯路2段207號1樓,120.6494336,24.1366706,台中南屯直營服務中心,直營
台中市龍井區新興路9號1樓,120.5912861,24.1811461,台中東海二直營服務中心,直營
台中市大里區中興路二段196、198號,120.6885804,24.1024384,大里中興二直營服務中心,直營
台中市南區美村南路62號1樓,120.666969,24.1175508,台中美村南直營服務中心,直營
台中市南屯區黎明路1段1081號1樓,120.637627,24.1391349,台中黎明二直營服務中心,直營
台中市大里區塗城路486號1樓,120.7024379,24.088447,大里塗城直營服務中心,直營
台中市南區復興路1段297之1號及299號1樓,120.653069,24.113691,復興大慶直營服務中心,直營
台北市內湖區瑞光路498號,121.568328,25.078825,內湖光電直營服務中心,直營
台北市信義區忠孝東路5段659、661號,121.579457,25.041938,台北忠孝東直營服務中心,直營
台北市內湖區內湖路1段277號1樓,121.5657776,25.0825193,台北西湖直營服務中心,直營
台北市文山區景中街39號1樓,121.5438164,24.9928427,文山景中直營服務中心,直營
台北市南港區忠孝東路5段968號,121.5822249,25.0442284,台北後山埤直營服務中心,直營
台北市文山區興隆路3段122號,121.5576325,24.9990417,台北萬芳直營服務中心,直營
台北市士林區中山北路6段144號,121.5250782,25.1061491,士林中山北直營服務中心,直營
台北市北投區明德路92號,121.5196799,25.1094463,北投明德直營服務中心,直營
台北市士林區德行東路211號,121.5325401,25.1092867,天母德行東直營服務中心,直營
台北市北投區致遠一路2段9號,121.5143259,25.1109295,北投致遠直營服務中心,直營
台北市內湖區內湖路1段727號1樓,121.5780334,25.07919,台北內湖直營服務中心,直營
台北市南港區忠孝東路6段378號,121.591961,25.049736,台北昆陽直營服務中心,直營
台北市北投區石牌路2段41號,121.5161992,25.1164682,台北石牌直營服務中心,直營
台北市文山區木柵路3段84號,121.5658042,24.9889286,台北木柵直營服務中心,直營
台北市士林區天母西路47號,121.5270521,25.1185979,台北天母直營服務中心,直營
台北市文山區木新路3段163號,121.5609055,24.9816004,台北木新直營服務中心,直營
台北市內湖區成功路4段141號,121.5935389,25.0827791,台北日湖直營服務中心,直營
台北市南港區南港路2段36及36-1號,121.605185,25.0542727,台北南港直營服務中心,直營
台北市內湖區康寧路3段20之1號,121.6076008,25.0723249,台北葫洲直營服務中心,直營
台北市南港區忠孝東路7段612號1樓,121.6156202,25.0528945,台北南港二直營服務中心,直營
台北市內湖區東湖路129號,121.6167048,25.0682676,台北東湖直營服務中心,直營
嘉義市東區民族路35號1樓,120.4584785,23.4769745,嘉義民族III,特約
嘉義市東區過溝里垂楊路242號1樓,120.4538322,23.4742679,嘉義垂楊,特約
嘉義市西區興業西路272號,120.439353,23.4679541,嘉義興業西,特約
嘉義市東區新生路683之1號,120.4561274,23.4945659,嘉義新生直營服務中心,直營
嘉義市西區國華里林森西路185號,120.4471035,23.4835661,嘉義林森直營服務中心,直營
嘉義市西區文化路163號,120.4493537,23.4804969,嘉義文化直營服務中心,直營
嘉義市西區民族路503號1樓,120.4482789,23.4758372,嘉義民族直營服務中心,直營
嘉義市西區友愛路213號,120.4335833,23.4832303,嘉義友愛直營服務中心,直營
嘉義市西區仁愛路359號,120.4421815,23.4753124,嘉義民族二直營服務中心,直營
嘉義市西區垂楊路636號,120.4417493,23.4733791,嘉義垂楊直營服務中心,直營
嘉義市西區興業西路147號,120.44059,23.4681207,嘉義興業西二直營服務中心,直營
嘉義縣大林鎮中正路524號,120.4542999,23.6031191,大林中正,特約
嘉義縣民雄鄉建國路1段59號,120.4335165,23.5558519,民雄建國,特約
嘉義縣竹崎鄉灣橋村灣橋322號,120.503630,23.492000,竹崎灣橋,特約
嘉義縣民雄鄉建國路3段161號1樓,120.439317,23.5233185,民雄頭橋,特約
嘉義縣新港鄉宮前村中山路129之1號1樓,120.3475151,23.5529099,新港中山,特約
嘉義縣中埔鄉和興村中山路5段901號1樓,120.4602414,23.4523441,中埔中山,特約
嘉義縣太保市中山路1段600號1樓,120.3780852,23.4986566,太保中山,特約
嘉義縣水上鄉水頭村中興路310.312號1樓,120.4021649,23.4303115,水上中興,特約
嘉義縣朴子市山通路101號1樓,120.2425822,23.4643231,朴子山通,特約
嘉義縣民雄鄉文化路60之7號1樓,120.4300699,23.5544781,嘉義民雄直營服務中心,直營
嘉義縣朴子市文化南路28.30號1樓,120.2411421,23.4628337,嘉義朴子直營服務中心,直營
雲林縣林內鄉中正路534號,120.6105824,23.7520185,林內中正,特約
雲林縣西螺鎮中山路103號1樓,120.4617744,23.7999602,西螺中山Ⅱ,特約
雲林縣西螺鎮中山路185號1樓,120.4580207,23.7995879,西螺中山,特約
雲林縣莿桐鄉中正路92號1樓,120.5010483,23.7573193,莿桐中正,特約
雲林縣斗六市文化路51號1樓,120.5453413,23.7111149,斗六文化,特約
雲林縣古坑鄉中山路90號1樓,120.5599253,23.6445616,古坑中山,特約
雲林縣虎尾鎮光復路398號,120.435889,23.710454,虎尾光復,特約
雲林縣斗南鎮中山路151之1號1樓,120.4781502,23.6771053,斗南永安,特約
雲林縣崙背鄉中山路293號1樓,120.353151,23.760499,崙背中山,特約
雲林縣虎尾鎮林森路2段264號,120.426897,23.702356,虎尾林森,特約
雲林縣土庫鎮建國路111號1樓,120.393364,23.678792,土庫建國,特約
雲林縣麥寮鄉中興路64號1樓,120.2522104,23.7518017,麥寮中興,特約
雲林縣元長鄉中山路147號1樓,120.3130361,23.6517987,元長中山,特約
雲林縣北港鎮大同路180號1樓,120.3020669,23.5715641,北港大同,特約
雲林縣斗六市鎮北路10、12號,120.5431635,23.7132771,斗六鎮北直營服務中心,直營
雲林縣斗六市成功路507號,120.5534463,23.7008329,斗六成功直營服務中心,直營
雲林縣斗六市民生南路46號,120.536851,23.705485,斗六民生南直營服務中心,直營
雲林縣斗六市中山路275號,120.5388712,23.7026553,斗六中山直營服務中心,直營
雲林縣虎尾鎮林森路1段488之3號1樓,120.4343146,23.7096087,雲林虎尾直營服務中心,直營
雲林縣虎尾鎮中正路248之1號1樓,120.4308557,23.7057881,虎尾中正直營服務中心,直營
雲林縣斗南鎮延平路2段428號,120.4761473,23.6751103,雲林斗南直營服務中心,直營
雲林縣北港鎮公園路73之1號,120.3020687,23.5754078,雲林北港直營服務中心,直營
桃園市八德區介壽路1段807號,121.3001231,24.9621638,桃園八德直營服務中心,直營
桃園市八德區廣福路168號1樓,121.2954572,24.9597501,八德廣福直營服務中心,直營
桃園市蘆竹區南崁路328號1樓,121.270725,25.061124,蘆竹南崁二直營服務中心,直營
桃園市中壢區忠孝路60號,121.2562436,24.974059,內壢忠孝二直營服務中心,直營
桃園市中壢區中華路一段232號1~2樓,121.2531949,24.9706219,新內壢中華直營服務中心,直營
桃園市大園區埔心村航站南路15號(1樓入境大廳),121.234211,25.079653,桃園機場直營服務中心,直營
桃園市大園區埔心村航站南路9號(1樓入境大廳),121.231729,25.076955,桃園二航直營服務中心,直營
桃園市中壢區龍東路330號,121.2553112,24.931805,中壢龍東直營服務中心,直營
桃園市大溪區慈湖路125號1樓,121.288806,24.8811593,桃園大溪直營服務中心,直營
桃園市中壢區中北路141號,121.239059,24.956819,中壢中北直營服務中心,直營
桃園市中壢區環北路538號,121.228245,24.964969,中壢環北直營服務中心,直營
桃園市中壢區健行路151號,121.227771,24.9491619,中壢健行直營服務中心,直營
桃園市中壢區新生路132號,121.223293,24.960161,中壢新生直營服務中心,直營
桃園市中壢區延平路596號,121.2242623,24.9541656,新中壢站前直營服務中心,直營
桃園市中壢區中正路371號,121.2160944,24.9553841,中壢中正二直營服務中心,直營
桃園市平鎮區民族路2段113號1樓,121.2054395,24.9571838,平鎮民族直營服務中心,直營
桃園市龍潭區中興路277號1樓,121.2234137,24.870484,龍潭中興直營服務中心,直營
桃園市龍潭區中正路121號,121.2161469,24.8676691,龍潭中正直營服務中心,直營
桃園市楊梅區永美路355號,121.1814064,24.9167831,楊梅永美直營服務中心,直營
桃園市觀音區大觀路2段145之1號,121.1417165,25.0464011,觀音草漯直營服務中心,直營
桃園市楊梅區大成路151號,121.1457736,24.9115509,楊梅站前直營服務中心,直營
桃園市楊梅區大成路32號,121.1455448,24.9084627,楊梅大成直營服務中心,直營
台東縣台東市更生路119、121號1樓,121.1479202,22.7589363,台東更生直營服務中心,直營
台東縣台東市新生路257號,121.1434442,22.7567557,台東新生直營服務中心,直營
台東縣台東市中華路1段324號,121.1540012,22.7551775,台東中華二直營服務中心,直營
台東縣台東市興國里13鄰中華路一段518號(1、2樓),121.1504677,22.7515943,台東中華直營服務中心,直營
新北市新店區中正路169號1樓,121.540958,24.97196,新店中正,特約
新北市泰山區明志路1段489號,121.4306309,25.0547315,泰山明志II,特約
新北市五股區成泰路2段178號,121.4389142,25.0851405,五股成泰,特約
新北市新店區北新路1段54號,121.541257,24.9663539,新店北新II,特約
新北市新莊區後港一路78號,121.427072,25.026512,新莊後港,特約
新北市土城區裕民路157之1號,121.452354,24.9859016,土城裕民,特約
新北市土城區裕民路39號1樓,121.4462992,24.9883754,土城裕生,特約
新北市新莊區民安西路177號,121.4260662,25.0159057,新莊民安西,特約
新北市新莊區八德街220號,121.423075,25.019179,新莊八德,特約
新北市新莊區富國路132號,121.4202033,25.0249587,新莊富國,特約
新北市樹林區鎮前街8號1樓,121.426306,24.993565,樹林鎮前,特約
新北市土城區中央路2段172號1樓,121.441682,24.976412,土城中央,特約
新北市樹林區保安街1段206號,121.4208845,24.9960504,樹林保安,特約
新北市深坑區文化街92號,121.6158323,25.0018408,深坑文化,特約
新北市淡水區民權路133號,121.4601008,25.1367179,淡水竹圍,特約
新北市樹林區中山路1段200號1樓,121.4192273,24.9882809,樹林立仁,特約
新北市土城區中央路3段120號,121.43506,24.966405,土城永寧,特約
新北市樹林區中華路126號,121.4176139,24.9805589,樹林中華,特約
新北市林口區竹林路59號,121.3884375,25.0794054,林口竹林,特約
新北市汐止區忠孝東路202號,121.6617809,25.0664431,汐止秀峰,特約
新北市林口區文化三路1段569號,121.3692106,25.0769383,林口文化三,特約
新北市林口區文化二路1段64號,121.363619,25.0690312,林口文化二,特約
新北市淡水區英專路90之4號,121.4457273,25.1714574,淡水英專,特約
新北市淡水區清水街250號,121.4402576,25.1716156,淡水中山,特約
新北市三峽區復興路89號1樓,121.3724016,24.9374885,三峽復興,特約
新北市三峽區中正路1段118號1樓,121.3715923,24.9293578,三峽中正,特約
花蓮縣花蓮市中山路422號1樓,121.5990939,23.9875455,花蓮中山,特約
花蓮縣花蓮市中正路493號,121.6060869,23.976456,花蓮中正II,特約
花蓮縣花蓮市中山路240之1號,121.6071762,23.979934,花蓮中山二直營服務中心,直營
花蓮縣花蓮市中山路157號,121.6100167,23.9760087,花蓮舊站直營服務中心,直營
花蓮縣吉安鄉中華路2段13號1樓,121.5868855,23.9738088,吉安中華直營服務中心,直營
花蓮縣花蓮市中正路342號1樓,121.6026481,23.9739802,花蓮中正直營服務中心,直營
屏東縣高樹鄉高樹村南興路178-2 178-3號,120.6012567,22.8245979,高樹南興,特約
屏東縣里港鄉春林村里港路55號,120.4951997,22.7758833,屏東里港,特約
屏東縣內埔鄉原勝路14號1樓,120.6000323,22.667638,內埔龍泉,特約
屏東縣屏東市華正路190號,120.4991141,22.6857345,屏東華正,特約
屏東縣屏東市博愛路336號1樓,120.480966,22.68278,屏東博愛,特約
屏東縣屏東市廣東路51之2號1樓,120.4987841,22.6709981,屏東廣東,特約
屏東縣屏東市民生路63之1號,120.502358,22.66472,屏東民生II,特約
屏東縣屏東市大同里復興路46號1樓,120.4871913,22.669735,屏東復興,特約
屏東縣內埔鄉廣濟路166之1號1樓,120.5663003,22.6155637,內埔廣濟,特約
屏東縣內埔鄉廣濟路68號,120.566628,22.613602,屏東內埔,特約
屏東縣萬丹鄉萬全村萬丹路1段331號1樓,120.4890088,22.5912564,屏東萬丹,特約
屏東縣潮州鎮建基路185號1樓,120.5403161,22.5512272,潮州建基,特約
屏東縣潮州鎮新生路6號,120.538024,22.549097,潮州新生,特約
屏東縣鹽埔鄉德協路3之1號1樓,120.3947754,22.5109564,鹽埔新圍,特約
屏東縣東港鎮頂新街2號,120.4505944,22.4697933,東港中正,特約
屏東縣枋寮鄉中山路192號,120.5957017,22.3837647,枋寮中山,特約
屏東縣恆春鎮省北路26號,120.7440323,22.0096411,恆春省北,特約
屏東縣屏東市中正路458號,120.4940612,22.6844363,屏東中正直營服務中心,直營
屏東縣屏東市廣東路425號,120.5000472,22.6818574,屏東廣東二直營服務中心,直營
屏東縣屏東市自由路586之3號1樓,120.4856028,22.68355,屏東自由直營服務中心,直營
屏東縣屏東市廣東路276號1樓,120.5009488,22.6769098,屏東廣東三直營服務中心,直營
屏東縣屏東市仁愛路75之10號,120.4930749,22.6733675,屏東仁愛直營服務中心,直營
屏東縣屏東市民生路155號1樓,120.4954668,22.6686572,屏東民生直營服務中心,直營
屏東縣屏東市民族路197及199號,120.4852069,22.6702705,屏東民族直營服務中心,直營
屏東縣屏東市華盛街9之3號1樓,120.4787323,22.6640935,屏東華盛直營服務中心,直營
屏東縣萬丹鄉萬丹路1段178號,120.4899063,22.587923,屏東萬丹一直營服務中心,直營
高雄市美濃區中正路1段51號1樓,120.5419659,22.900073,美濃中正,特約
高雄市旗山區延平一路572號,120.480869,22.8875109,旗山延平,特約
高雄市旗山區延平一路686號1樓,120.4830079,22.8841784,旗山延平II,特約
高雄市阿蓮區忠孝路199號,120.3276394,22.8785471,阿蓮忠孝,特約
高雄市湖內區保生路159號1樓,120.223059,22.906946,湖內保生,特約
高雄市茄萣區仁愛路3段150號1樓,120.1839272,22.9022204,茄萣仁愛,特約
高雄市路竹區中山路632號1樓,120.2601965,22.8586978,路竹中山II,特約
高雄市燕巢區西燕里中民路674之1號,120.3589355,22.7931484,燕巢中民,特約
高雄市岡山區岡山路396號1樓,120.295804,22.7950157,岡山岡山,特約
高雄市岡山區壽天路81號1樓,120.2920519,22.7958777,岡山壽天,特約
高雄市岡山區前峰路99號1樓,120.2860442,22.7963929,岡山前峰,特約
高雄市橋頭區成功路222號1樓,120.310803,22.7566434,橋頭成功,特約
高雄市橋頭區隆豐路209號1樓,120.3050883,22.7538186,橋頭隆豐,特約
高雄市大社區中山路415號1樓,120.3524549,22.7313348,大社中山,特約
高雄市大社區中山路208號,120.3476805,22.7319379,大社中山II,特約
高雄市梓官區中崙路233.235號,120.2690503,22.7610543,梓官中崙,特約
高雄市梓官區和平路320號,120.2626246,22.7587436,梓官和平,特約
高雄市楠梓區建楠路144號,120.3246903,22.7272889,楠梓建楠,特約
高雄市梓官區赤崁南路96之2號1樓,120.2617772,22.7449136,梓官蚵寮,特約
高雄市楠梓區德賢路548號1樓,120.3013478,22.7261309,楠梓德賢,特約
高雄市楠梓區後昌路152號1樓,120.310009,22.71769,楠梓後勁,特約
高雄市楠梓區軍校路993號,120.2915326,22.7124873,楠梓軍校,特約
高雄市楠梓區後昌路759號,120.2962304,22.710012,楠梓後昌,特約
高雄市大樹區久堂路170號1樓,120.4168738,22.6579357,大樹久堂,特約
高雄市仁武區仁雄路6之5號1樓,120.3540664,22.6810055,仁武八卦寮,特約
高雄市鳥松區學堂路32號1樓,120.3899105,22.6584395,鳥松學堂,特約
高雄市仁武區仁雄路105號1樓,120.3410451,22.6766586,仁武仁雄,特約
高雄市左營區重和路15號,120.3117746,22.6829174,左營重和,特約
高雄市左營區華夏路1106號1樓,120.3080949,22.6834583,左營華夏,特約
台南市白河區白河里中山路104號1樓,120.415878,23.350375,白河中山,特約
台南市新營區三民路91之4號1樓,120.3130284,23.3068491,新營三民II,特約
台南市新營區中山路139號1樓,120.3144013,23.3041249,新營中山,特約
台南市鹽水區中境里中正路44號1樓,120.2676485,23.3201362,鹽水中正,特約
台南市六甲區中山路55號1樓,120.3481122,23.2310161,六甲中山,特約
台南市學甲區中山路101號1樓,120.181057,23.23443,學甲中山,特約
台南市麻豆區新建里中山路157之2號1樓,120.2440095,23.1835738,麻豆中山,特約
台南市善化區光文里中山路219之5號1樓,120.2988063,23.1323303,善化中山,特約
台南市善化區中正路410號,120.2941378,23.129918,善化中正,特約
台南市西港區中山路328號1樓,120.1744945,23.1731945,西港中山,特約
台南市佳里區光復路198之1號1樓,120.1726787,23.1608777,佳里光復,特約
台南市新市區仁愛街324號1樓,120.2939424,23.0784103,新市仁愛,特約
台南市新化區中山路285號1樓,120.3068545,23.0358698,新化中山,特約
台南市永康區永康里中山北路9號1樓之2,120.2575515,23.0261991,永康中山北,特約
台南市關廟區關廟里中山路2段137之2號1樓,120.3260895,22.9601173,關廟中山,特約
台南市安南區海佃路1段250號1樓,120.1914879,23.0255146,台南海佃,特約
台南市歸仁區中山路2段249號,120.2879674,22.9675221,歸仁中山,特約
台南市東區東寧路474號1樓,120.229773,22.9892788,台南東寧II,特約
台南市東區勝利路113號1樓,120.2156101,22.99461,東區勝利,特約
台南市北區文賢路258號1樓,120.1936777,23.0045191,台南文賢,特約
台南市中西區府前路1段423號,120.198202,22.9901704,台南府前,特約
台南市東區仁和路108-1、108-2號,120.2347495,22.9687157,台南仁和,特約
台南市南區永華路1段3號1樓,120.1971435,22.9872378,台南永華,特約
新北市鶯歌區建國路181號1樓,121.349711,24.953382,鶯歌建國,特約
新北市金山區中山路131號1樓,121.639195,25.2199944,金山中山,特約
新北市三重區忠孝路2段9號,120.6484577,24.1746738,三重忠孝II,特約
新北市八里區中山路2段530號,120.6000323,22.667638,八里中山,特約
新北市三重區重新路1段125號1樓,121.500126,25.0632361,三重重新直營服務中心,直營
新北市三重區重新路2段46之8號,121.4983301,25.0622389,三重新天台直營服務中心,直營
新北市三重區正義北路325號1樓,121.4939891,25.0714166,重陽正義直營服務中心,直營
新北市永和區永和路2段196號,121.515765,25.013643,永和頂溪直營服務中心,直營
新北市三重區中華路78號1樓,121.48327,25.062666,三重中華直營服務中心,直營
新北市三重區中正北路216號1樓,121.4822092,25.0674977,三重新中正北直營服務中心,直營
新北市永和區永和路1段162號1樓,121.5141776,25.0085721,永和樂華直營服務中心,直營
新北市永和區福和路137號,121.521224,25.007533,永和福和直營服務中心,直營
新北市板橋區雙十路2段63號1樓,121.4762925,25.0265929,板橋雙十直營服務中心,直營
新北市板橋區文化路2段320號,121.4726137,25.0299703,板橋江子翠直營服務中心,直營
新北市三重區重新路5段609巷2號1樓之2,121.4686,25.045475,湯城直營服務中心,直營
新北市中和區中和路406號1、2樓,121.5113878,25.0028961,中和永安直營服務中心,直營
新北市三重區五華街127號1樓,121.491242,25.084216,三重五華直營服務中心,直營
新北市新莊區化成路388號1樓,121.466236,25.0502359,新莊化成直營服務中心,直營
新北市板橋區中山路2段243號,121.477258,25.017534,板橋埔墘直營服務中心,直營
新北市板橋區莒光路55號,121.4709736,25.0243536,板橋莒光直營服務中心,直營
新北市中和區中和路304號1樓之2,121.5088812,25.0000347,中和中和直營服務中心,直營
新北市中和區中和路12號1樓,121.4995788,25.0020795,中和中和二直營服務中心,直營
新北市永和區中正路320號,121.517686,24.9995189,永和中正二直營服務中心,直營
新北市永和區得和路326號1樓,121.5231364,24.9995139,永和得和直營服務中心,直營
新北市中和區中和路159號,121.502906,24.9998029,中和南山直營服務中心,直營
屏東縣潮州鎮中山路172號1樓,120.5386887,22.5496331,屏東潮州直營服務中心,直營
屏東縣東港鎮中正路1段153號1樓,120.4579427,22.4736577,東港中正二直營服務中心,直營
屏東縣東港鎮中山路32號,120.4514841,22.4662356,屏東東港直營服務中心,直營
屏東縣恆春鎮中正路105號1樓,120.74434,22.0034572,恆春中正直營服務中心,直營
高雄市左營區左營大路191號,120.2873313,22.685239,左營左營II,特約
高雄市大寮區鳳屏一路454號1樓,120.3959549,22.6381392,中庄鳳屏,特約
高雄市三民區天祥一路145號,120.319767,22.667312,三民天祥,特約
高雄市仁武區中正路13號1樓,120.365538,22.644461,仁武中正,特約
高雄市三民區鼎山街241號1樓,120.3219729,22.6593959,三民鼎山,特約
高雄市鳳山區青年路2段326號1樓,120.3512243,22.6403946,鳳山青年,特約
高雄市三民區陽明路299號1樓,120.3421396,22.6436732,三民陽明,特約
高雄市鼓山區明誠三路698號,120.2944552,22.6613116,鼓山明誠三,特約
高雄市鳳山區中山東路226、228號1樓,120.3765212,22.626396,鳳山中山東,特約
高雄市三民區建工路722號,120.320045,22.648671,三民建工II,特約
高雄市三民區大昌二路92號1樓,120.3301016,22.6426937,三民大昌,特約
高雄市鳳山區中山東路86之6號1樓,120.372161,22.624513,鳳山中山東II,特約
高雄市大寮區鳳林四路122號,120.3863515,22.6160478,高雄大寮,特約
高雄市鳳山區光遠路338號1樓,120.359516,22.626064,鳳山光遠,特約
高雄市鼓山區九如四路1129號,120.279078,22.659126,鼓山內惟,特約
高雄市三民區博愛一路190號,120.30348,22.646694,三民博愛一,特約
高雄市鳳山區中山西路238號1樓,120.3475527,22.6281214,鳳山中山西,特約
高雄市鳳山區五甲一路84號1樓,120.3570844,22.6212096,鳳山五甲一,特約
高雄市苓雅區建國一路314號1樓,120.3253067,22.6329306,苓雅建國一,特約
高雄市新興區林森一路210號,120.304901,22.6326501,新興林森II,特約
高雄市鳳山區凱旋路246號1樓,120.3495409,22.6132974,鳳山凱旋,特約
高雄市前金區中華三路212號,120.2945492,22.6331866,前金中華三,特約
高雄市鳳山區大明路116號,120.3417499,22.609037,鳳山大明,特約
高雄市前鎮區永豐路85號1樓,120.3312597,22.605387,前鎮瑞隆,特約
高雄市前鎮區一心一路394號1樓,120.316024,22.609071,前鎮一心,特約
高雄市鹽埕區五福四路129號1樓,120.2823873,22.622945,鹽埕五福四,特約
高雄市鳳山區五甲二路392號1樓,120.3364783,22.598655,鳳山五甲,特約
高雄市鼓山區臨海二路21號1樓,120.2709282,22.6222028,鼓山西子灣,特約
高雄市鳳山區五甲三路80號1樓,120.3244923,22.592417,鳳山五甲三,特約
高雄市旗津區大關路47號1樓,120.2673336,22.6131626,高雄旗津,特約
高雄市小港區金府路95號1樓,120.354491,22.567834,小港金府,特約
台南市南區金華路2段451號1樓,120.191772,22.98795,台南金華,特約
台南市東區大福里大同路2段245號1樓,120.2142485,22.9753805,台南大同II,特約
台南市新營區民權路11之1號,120.3131661,23.3035865,新營民權直營服務中心,直營
台南市新營區民治路261號,120.3032792,23.3054281,台南新營直營服務中心,直營
台南市麻豆區興中路32號,120.249384,23.1834649,台南麻豆直營服務中心,直營
台南市佳里區延平路271號,120.1782256,23.1609054,台南佳里直營服務中心,直營
台南市新市區中正路208號1樓,120.291465,23.0747348,新市中正直營服務中心,直營
台南市新化區中山路523號,120.3022429,23.0359074,新化中山二直營服務中心,直營
台南市安南區安和路5段143號,120.2180889,23.0657966,台南安和直營服務中心,直營
台南市永康區中正北路66號,120.2406532,23.0413966,永康中正北直營服務中心,直營
台南市永康區中山南路808及810號,120.246937,23.0209,永康二王直營服務中心,直營
台南市永康區大灣路213號,120.268144,23.0076219,永康大灣直營服務中心,直營
台南市安南區安中路1段719號,120.1950613,23.0431305,台南安中直營服務中心,直營
台南市安南區安和路一段314、316號,120.212569,23.032553,台南安和二直營服務中心,直營
台南市安南區安和路1段115號,120.2141874,23.028591,台南安和一直營服務中心,直營
台南市永康區復國一路333號,120.2462798,23.0107967,永康復國直營服務中心,直營
台南市安南區安中路3段389.391號,120.1743695,23.0493938,台南安中本淵直營服務中心,直營
台南市永康區中華路663號,120.2291274,23.0157673,台南永康直營服務中心,直營
台南市永康區大灣路843號1樓,120.2558347,22.9994719,永康崑山一直營服務中心,直營
台南市永康區中山南路28之1號,120.227466,23.0120905,永康中山南二直營服務中心,直營
台南市永康區中華路138之1號,120.235467,23.002982,永康中華二直營服務中心,直營
台南市北區北園街1之1號1樓,120.2229769,23.009181,台南開元直營服務中心,直營
台南市北區公園路591之44號,120.2116186,23.0131237,台南公園直營服務中心,直營
金門縣金城鎮民生路51號1樓,118.3189549,24.4358357,金門金城直營服務中心,直營
澎湖縣馬公市治平路26號,119.568061,23.5695729,馬公治平,特約
澎湖縣馬公市民生路31、33號,119.5667889,23.5675453,馬公民生直營服務中心,直營
新北市板橋區民生路3段21號,121.46696,25.0239639,板橋新埔直營服務中心,直營
新北市板橋區四維路233號,121.4635246,25.0274092,板橋四維直營服務中心,直營
新北市中和區景平路166號1樓,121.5171404,24.9921987,中和大潤發直營服務中心,直營
新北市蘆洲區復興路110號1樓,121.4762336,25.0871408,蘆洲復興直營服務中心,直營
新北市新莊區幸福路526號1樓,121.4559267,25.0494189,新莊頂好直營服務中心,直營
新北市中和區連城路267之1號,121.4909802,24.996272,中和連城直營服務中心,直營
新北市板橋區新海路130號,121.461193,25.023208,板橋新海直營服務中心,直營
新北市中和區中山路3段143號,121.4739684,25.0060138,中和環球直營服務中心,直營
新北市中和區興南路1段64巷2號,121.5107057,24.9903489,中和南勢角直營服務中心,直營
新北市新莊區五權一路50號1樓,121.457996,25.065855,新莊五權直營服務中心,直營
新北市新莊區昌平街69號,121.4546103,25.0536157,新莊昌平直營服務中心,直營
新北市新莊區中港路264號1樓,121.4534353,25.0437727,新莊復興直營服務中心,直營
新北市蘆洲區中正路156之2號,121.468931,25.08559,蘆洲中正直營服務中心,直營
新北市中和區連城路324號1樓,121.4832927,24.996072,中和連城二直營服務中心,直營
新北市新莊區幸福路690號,121.450236,25.049438,新莊幸福二直營服務中心,直營
新北市蘆洲區中華街36號1樓,121.4624511,25.0811553,蘆洲中華直營服務中心,直營
新北市中和區德光路68號1樓,121.4694049,25.0039086,中和德光直營服務中心,直營
新北市板橋區民族路37-2、37-3號1樓,121.462492,25.00967,板橋民族直營服務中心,直營
新北市板橋區中正路152號1樓,121.456778,25.0166289,板橋民權直營服務中心,直營
新北市新莊區新泰路32號,121.449546,25.0341417,新莊廟街直營服務中心,直營
新北市新莊區中正路299號,121.448544,25.034965,台北新莊直營服務中心,直營
新北市新莊區中平路263號1樓,121.4447499,25.0495541,新莊中平二直營服務中心,直營
新北市板橋區府中路97號,121.456907,25.0093509,板橋府中直營服務中心,直營
新北市板橋區重慶路246號,121.4628583,25.0009592,板橋重慶直營服務中心,直營
新北市新店區北新路3段139號,121.5411039,24.9831302,新店大坪林直營服務中心,直營
高雄市前鎮區草衙二路465號1樓,120.3228,22.58013,前鎮草衙,特約
高雄市小港區漢民路244號1樓,120.352232,22.565964,小港漢民,特約
高雄市林園區林園北路276號1樓,120.3924324,22.5097535,林園林園北,特約
高雄市林園區仁愛里東林西路168號1樓,120.3919727,22.5034515,林園東林西,特約
高雄市路竹區大社路49號,120.2624426,22.8634834,高雄路竹直營服務中心,直營
高雄市岡山區柳橋東路32之5號,120.2951103,22.7910725,岡山柳橋東直營服務中心,直營
高雄市岡山區仁壽路38號1樓,120.2896548,22.7926515,岡山仁壽直營服務中心,直營
高雄市楠梓區楠梓新路250號,120.326074,22.727998,高雄楠梓直營服務中心,直營
高雄市楠梓區德賢路295號,120.3034268,22.7261515,高雄德賢直營服務中心,直營
高雄市楠梓區後昌路778及780號,120.29594,22.7107708,高雄後昌直營服務中心,直營
高雄市左營區榮總路1號,120.3217786,22.6779809,高雄榮總直營服務中心,直營
高雄市左營區自由三路351號,120.3120396,22.6745481,高雄自由三直營服務中心,直營
高雄市左營區華夏路663號1樓,120.3015627,22.6775508,高雄華夏二直營服務中心,直營
高雄市左營區左營大路97號,120.288276,22.682714,高雄左營直營服務中心,直營
高雄市左營區崇德路247號,120.3042085,22.6752768,高雄崇德直營服務中心,直營
高雄市左營區新庄仔路179號,120.30381,22.6703792,高雄巨蛋直營服務中心,直營
高雄市左營區自由二路212號,120.308454,22.663488,高雄自由二直營服務中心,直營
高雄市三民區河堤路288號,120.3119113,22.6608644,高雄明誠直營服務中心,直營
高雄市鼓山區華榮路339號、341號1樓,120.295887,22.667544,高雄華榮直營服務中心,直營
高雄市鳳山區文德里青年路2段474號,120.3512624,22.6442024,鳳山青年二直營服務中心,直營
高雄市鼓山區裕誠路1089之1號,120.2993475,22.665733,高雄瑞豐直營服務中心,直營
高雄市鳳山區經武路198號1樓,120.364328,22.6367381,鳳山經武直營服務中心,直營
高雄市左營區富國路99號,120.3063301,22.6599093,高雄富國直營服務中心,直營
高雄市三民區建工路492號,120.3266501,22.6512824,高雄建工直營服務中心,直營
高雄市三民區大昌二路252號,120.3321655,22.6456851,高雄大昌一直營服務中心,直營
高雄市三民區鼎山街632號,120.3167589,22.6501149,高雄鼎山直營服務中心,直營
高雄市三民區覺民路152號1樓,120.3410437,22.6394301,高雄覺民直營服務中心,直營
高雄市三民區建興路310號,120.3233861,22.6461588,高雄建興直營服務中心,直營
高雄市鳳山區中山路148之1號,120.3569121,22.625499,高雄鳳山直營服務中心,直營
高雄市大寮區鳳林三路711號,120.3927744,22.6106972,大寮鳳林直營服務中心,直營
台南市安南區海佃路1段163號,120.1915337,23.0235541,台南海佃二直營服務中心,直營
台南市歸仁區中山路2段48號,120.2926874,22.966967,台南歸仁直營服務中心,直營
台南市東區裕農路597之1號,120.2344762,22.9886288,台南裕農直營服務中心,直營
台南市東區東寧路260號1樓,120.225591,22.9905087,台南東寧直營服務中心,直營
台南市仁德區仁義里中山路495號,120.2553054,22.9711356,台南仁德直營服務中心,直營
台南市中西區民族路2段55之1號,120.2100841,22.994323,台南民族直營服務中心,直營
台南市中西區西門路2段357號,120.1998573,22.9980338,台南西門直營服務中心,直營
台南市仁德區中正路2段1171號,120.2517786,22.9708104,仁德中正直營服務中心,直營
台南市東區東門路2段123號1樓,120.221983,22.985862,台南東門直營服務中心,直營
台南市中西區民生路2段279號1樓,120.1917647,22.9966797,台南民生直營服務中心,直營
台南市東區崇學路119號,120.2221635,22.9789187,台南崇學直營服務中心,直營
台南市東區中華東路3段196號,120.225496,22.977065,台南中華東一直營服務中心,直營
台南市中西區金華路三段110、112號,120.1927983,22.9915085,台南金華三直營服務中心,直營
台南市東區大同路2段55號,120.2128519,22.9797295,台南大同直營服務中心,直營
台南市東區崇德路660號,120.2273904,22.9694284,台南崇德直營服務中心,直營
台南市安平區華平路684號,120.1759715,22.9965883,台南華平直營服務中心,直營
台南市南區健康路2段268號,120.190019,22.981988,台南健康直營服務中心,直營
台南市仁德區中正路2段250號1樓,120.2514263,22.949398,仁德後壁直營服務中心,直營
新北市板橋區南雅南路1段46號,121.4557401,25.0060216,板橋南雅二直營服務中心,直營
新北市新店區中正路361號,121.5348553,24.9761014,新店耕莘直營服務中心,直營
新北市土城區金城路3段167號,121.4674145,24.9875338,土城金城直營服務中心,直營
新北市新店區北新路2段165號,121.5426845,24.9764161,新店七張直營服務中心,直營
新北市土城區延吉街237號1樓,121.4679687,24.985008,土城延吉直營服務中心,直營
新北市板橋區四川路2段37號,121.4542522,24.995301,板橋亞東直營服務中心,直營
新北市土城區明德路1段3號1樓,121.4648524,24.985934,土城明德直營服務中心,直營
新北市土城區學府路1段76號1樓,121.4565097,24.9883068,土城學府直營服務中心,直營
新北市泰山區明志路2段66號,121.4290012,25.0525698,台北新泰山直營服務中心,直營
新北市泰山區明志路3段160號,121.4245031,25.0394077,台北泰山直營服務中心,直營
新北市土城區裕民路261號1樓,121.4550649,24.9827435,台北土城直營服務中心,直營
新北市新莊區民安西路62號1樓,121.427189,25.0203326,新莊光華直營服務中心,直營
新北市新莊區民安路216號,121.425887,25.022636,新莊民安直營服務中心,直營
新北市新店區安康路2段212之1號,121.5099699,24.9594218,新店成康直營服務中心,直營
新北市新莊區民安西路243號1樓,121.4261644,25.0137877,新莊西盛直營服務中心,直營
新北市新莊區富國路51號1樓,121.4193534,25.0263818,新莊富國二直營服務中心,直營
新北市板橋區溪北路34號1樓,121.427094,24.9901899,樹林博愛直營服務中心,直營
新北市土城區中央路2段219之2號1樓,121.441167,24.973813,土城中央二直營服務中心,直營
新北市樹林區中山路1段65號,121.423758,24.9917939,樹林中山直營服務中心,直營
新北市板橋區篤行路3段74號1樓,121.426916,24.9854159,板橋篤行直營服務中心,直營
新北市汐止區中興路206號,121.6313628,25.0661525,台北汐止直營服務中心,直營
新北市汐止區樟樹一路131號1樓,121.642065,25.064965,汐止樟樹直營服務中心,直營
新北市汐止區大同路2段312巷14號1樓,121.6472491,25.0629677,汐止大同直營服務中心,直營
新北市汐止區建成路30號,121.3853492,25.075988,汐止建成直營服務中心,直營
新北市林口區仁愛路2段30號,121.3853492,25.075988,林口仁愛直營服務中心,直營
新北市汐止區新台五路1段197號,121.655864,25.0633939,汐止新台五二直營服務中心,直營
新北市汐止區忠孝東路287號,121.664029,25.0686548,汐止忠孝東直營服務中心,直營
新北市淡水區中正東路49號,121.446623,25.168048,淡水中正東直營服務中心,直營
新北市淡水區中正路46號,121.4433459,25.1695577,淡水中正直營服務中心,直營
新北市淡水區大忠街113巷10號,121.4471519,25.1775059,淡水大忠直營服務中心,直營
高雄市三民區九如一路855號,120.3188467,22.6398516,高雄九如直營服務中心,直營
高雄市三民區自由一路107、109號,120.308475,22.643804,高雄自由直營服務中心,直營
高雄市苓雅區正義路95號,120.338624,22.630384,高雄正義直營服務中心,直營
高雄市鳳山區青年路1段321.323號,120.3490995,22.6260713,鳳山青年一直營服務中心,直營
高雄市鳳山區中山路81號,120.360121,22.621447,鳳山中山直營服務中心,直營
高雄市苓雅區武廟路118之8號,120.3289896,22.6309881,高雄武廟直營服務中心,直營
高雄市苓雅區和平一路240號,120.317584,22.631685,高雄和平直營服務中心,直營
高雄市大寮區大寮路628號1樓,120.413448,22.5918839,高雄大寮直營服務中心,直營
高雄市新興區林森一路243之2號,120.304702,22.634934,高雄林森直營服務中心,直營
高雄市苓雅區三多一路279號1樓,120.3295288,22.6220025,高雄三信直營服務中心,直營
高雄市苓雅區廣州一街153之4號,120.3159934,22.6267851,高雄苓雅直營服務中心,直營
高雄市苓雅區光華一路148之27號,120.316285,22.622687,高雄光華直營服務中心,直營
高雄市苓雅區三多二路244.246號,120.3184357,22.6186631,高雄三多二直營服務中心,直營
高雄市苓雅區四維三路47號,120.310619,22.618911,高雄四維直營服務中心,直營
高雄市新興區新田路177號,120.3027744,22.621846,高雄新田直營服務中心,直營
高雄市鹽埕區大勇路137及139號,120.284978,22.626294,高雄大勇直營服務中心,直營
高雄市苓雅區成功一路267之1號,120.2952073,22.620081,高雄成功直營服務中心,直營
高雄市鳳山區南華路194號,120.3382056,22.6023154,鳳山南華直營服務中心,直營
高雄市苓雅區三多三路262號,120.305447,22.614417,高雄三多直營服務中心,直營
高雄市前鎮區瑞隆路564號,120.3269121,22.605292,高雄瑞隆直營服務中心,直營
高雄市前鎮區一心二路43號,120.310918,22.610968,高雄一心直營服務中心,直營
高雄市鳳山區五甲二路563之1號,120.331564,22.595614,鳳山五甲直營服務中心,直營
高雄市小港區孔鳳路509、511號,120.3585319,22.582581,高雄桂林孔鳳直營服務中心,直營
高雄市鳳山區五甲三路21、23號,120.3276924,22.5926893,鳳山五甲二直營服務中心,直營
高雄市小港區漢民路713、715號,120.362125,22.567884,高雄漢民二直營服務中心,直營
高雄市小港區漢民路431號,120.3581342,22.5670473,高雄漢民直營服務中心,直營
高雄市前鎮區草衙二路321號,120.3236653,22.5772056,高雄草衙直營服務中心,直營
高雄市林園區東林西路74號1樓,120.3938936,22.5041341,高雄林園直營服務中心,直營
台南市南區金華路2段152號,120.1916,22.979292,台南金華二直營服務中心,直營
台南市南區金華路1段511號,120.1907059,22.9747125,台南金華一直營服務中心,直營
新北市三峽區大學路166號,121.3727797,24.946214,三峽北大直營服務中心,直營
新北市三峽區民生街17號1樓,121.376436,24.936536,三峽民生直營服務中心,直營
新北市三峽區文化路39號,121.372848,24.9360429,台北三峽直營服務中心,直營
新北市鶯歌區中正一路88號1樓,121.352421,24.954526,台北鶯歌直營服務中心,直營
